{"type": "FeatureCollection", "metadata": {"titulo": "Monitoreo OEFA de sitios impactados (agua, suelo, sedimento y biota)", "fuente": "OEFA — Datos abiertos, Evaluación ambiental para la Identificación de Sitios Impactados (ISIM), Amazonía 2022-2024.", "estado": "verificado", "actualizado": "2026-09-01"}, "features": [{"type": "Feature", "geometry": {"type": "Point", "coordinates": [-76.436378, -2.801308]}, "properties": {"punto": "S0352-AS-001", "componentes": "Agua", "n_componentes": 1, "informe": "INFORME N° 00023-2023-OEFA/DEAM-SSIM", "evaluacion": "Evaluación ambiental para la identificación del sitio impactado por actividades de hidrocarburos con código S0352", "registros": 63}}, {"type": "Feature", "geometry": {"type": "Point", "coordinates": [-76.435749, -2.80177]}, "properties": {"punto": "S0352-AS-002", "componentes": "Agua", "n_componentes": 1, "informe": "INFORME N° 00023-2023-OEFA/DEAM-SSIM", "evaluacion": "Evaluación ambiental para la identificación del sitio impactado por actividades de hidrocarburos con código S0352", "registros": 63}}, {"type": "Feature", "geometry": {"type": "Point", "coordinates": [-76.43567, -2.803335]}, "properties": {"punto": "S0353-AS-001", "componentes": "Agua", "n_componentes": 1, "informe": "INFORME N° 00034-2023-OEFA/DEAM-SSIM", "evaluacion": "Evaluación ambiental para la identificación del sitio impactado por actividades de hidrocarburos con código S0353", "registros": 64}}, {"type": "Feature", "geometry": {"type": "Point", "coordinates": [-76.435616, -2.802675]}, "properties": {"punto": "S0353-AS-003", "componentes": "Agua", "n_componentes": 1, "informe": "INFORME N° 00034-2023-OEFA/DEAM-SSIM", "evaluacion": "Evaluación ambiental para la identificación del sitio impactado por actividades de hidrocarburos con código S0353", "registros": 64}}, {"type": "Feature", "geometry": {"type": "Point", "coordinates": [-76.435571, -2.803091]}, "properties": {"punto": "S0353-AS-002", "componentes": "Agua", "n_componentes": 1, "informe": "INFORME N° 00034-2023-OEFA/DEAM-SSIM", "evaluacion": "Evaluación ambiental para la identificación del sitio impactado por actividades de hidrocarburos con código S0353", "registros": 64}}, {"type": "Feature", "geometry": {"type": "Point", "coordinates": [-76.433448, -2.810202]}, "properties": {"punto": "S0348-AS-004", "componentes": "Agua", "n_componentes": 1, "informe": "INFORME N° 00016-2023-OEFA/DEAM-SSIM", "evaluacion": "Evaluación ambiental para la identificación del sitio impactado por actividades de hidrocarburos con código S0348", "registros": 64}}, {"type": "Feature", "geometry": {"type": "Point", "coordinates": [-76.433141, -2.809144]}, "properties": {"punto": "S0348-AS-001", "componentes": "Agua", "n_componentes": 1, "informe": "INFORME N° 00016-2023-OEFA/DEAM-SSIM", "evaluacion": "Evaluación ambiental para la identificación del sitio impactado por actividades de hidrocarburos con código S0348", "registros": 64}}, {"type": "Feature", "geometry": {"type": "Point", "coordinates": [-76.433096, -2.809515]}, "properties": {"punto": "S0348-AS-002", "componentes": "Agua", "n_componentes": 1, "informe": "INFORME N° 00016-2023-OEFA/DEAM-SSIM", "evaluacion": "Evaluación ambiental para la identificación del sitio impactado por actividades de hidrocarburos con código S0348", "registros": 64}}, {"type": "Feature", "geometry": {"type": "Point", "coordinates": [-76.432989, -2.809958]}, "properties": {"punto": "S0348-AS-003", "componentes": "Agua", "n_componentes": 1, "informe": "INFORME N° 00016-2023-OEFA/DEAM-SSIM", "evaluacion": "Evaluación ambiental para la identificación del sitio impactado por actividades de hidrocarburos con código S0348", "registros": 64}}, {"type": "Feature", "geometry": {"type": "Point", "coordinates": [-76.432927, -2.8107]}, "properties": {"punto": "S0348-AS-005", "componentes": "Agua", "n_componentes": 1, "informe": "INFORME N° 00016-2023-OEFA/DEAM-SSIM", "evaluacion": "Evaluación ambiental para la identificación del sitio impactado por actividades de hidrocarburos con código S0348", "registros": 64}}, {"type": "Feature", "geometry": {"type": "Point", "coordinates": [-76.432224, -2.809308]}, "properties": {"punto": "S0348-AS-006", "componentes": "Agua", "n_componentes": 1, "informe": "INFORME N° 00016-2023-OEFA/DEAM-SSIM", "evaluacion": "Evaluación ambiental para la identificación del sitio impactado por actividades de hidrocarburos con código S0348", "registros": 64}}, {"type": "Feature", "geometry": {"type": "Point", "coordinates": [-76.418424, -2.815493]}, "properties": {"punto": "S0350-AS-003", "componentes": "Agua", "n_componentes": 1, "informe": "INFORME N° 00044-2023-OEFA/DEAM-SSIM", "evaluacion": "Evaluación ambiental para la identificación del sitio impactado por actividades de hidrocarburos con código S0350", "registros": 63}}, {"type": "Feature", "geometry": {"type": "Point", "coordinates": [-76.417741, -2.815919]}, "properties": {"punto": "S0350-AS-002", "componentes": "Agua", "n_componentes": 1, "informe": "INFORME N° 00044-2023-OEFA/DEAM-SSIM", "evaluacion": "Evaluación ambiental para la identificación del sitio impactado por actividades de hidrocarburos con código S0350", "registros": 63}}, {"type": "Feature", "geometry": {"type": "Point", "coordinates": [-76.417273, -2.815621]}, "properties": {"punto": "S0350-AS-001", "componentes": "Agua", "n_componentes": 1, "informe": "INFORME N° 00044-2023-OEFA/DEAM-SSIM", "evaluacion": "Evaluación ambiental para la identificación del sitio impactado por actividades de hidrocarburos con código S0350", "registros": 63}}, {"type": "Feature", "geometry": {"type": "Point", "coordinates": [-76.433141, -2.809144]}, "properties": {"punto": "S0348-AS-DUP", "componentes": "Agua", "n_componentes": 1, "informe": "INFORME N° 00016-2023-OEFA/DEAM-SSIM", "evaluacion": "Evaluación ambiental para la identificación del sitio impactado por actividades de hidrocarburos con código S0348", "registros": 64}}, {"type": "Feature", "geometry": {"type": "Point", "coordinates": [-76.435749, -2.80177]}, "properties": {"punto": "S0352-AS-002-DUP", "componentes": "Agua", "n_componentes": 1, "informe": "INFORME N° 00023-2023-OEFA/DEAM-SSIM", "evaluacion": "Evaluación ambiental para la identificación del sitio impactado por actividades de hidrocarburos con código S0352", "registros": 44}}, {"type": "Feature", "geometry": {"type": "Point", "coordinates": [-76.431181, -2.810096]}, "properties": {"punto": "S0371-SED-001", "componentes": "Sedimento", "n_componentes": 1, "informe": "INFORME N° 00004-2023-OEFA/DEAM-SSIM", "evaluacion": "Evaluación ambiental para la identificación del sitio impactado por actividades de hidrocarburos con código S0371", "registros": 51}}, {"type": "Feature", "geometry": {"type": "Point", "coordinates": [-76.431442, -2.810114]}, "properties": {"punto": "S0371-SED-002", "componentes": "Sedimento", "n_componentes": 1, "informe": "INFORME N° 00004-2023-OEFA/DEAM-SSIM", "evaluacion": "Evaluación ambiental para la identificación del sitio impactado por actividades de hidrocarburos con código S0371", "registros": 51}}, {"type": "Feature", "geometry": {"type": "Point", "coordinates": [-76.431658, -2.809987]}, "properties": {"punto": "S0371-SED-003", "componentes": "Sedimento", "n_componentes": 1, "informe": "INFORME N° 00004-2023-OEFA/DEAM-SSIM", "evaluacion": "Evaluación ambiental para la identificación del sitio impactado por actividades de hidrocarburos con código S0371", "registros": 51}}, {"type": "Feature", "geometry": {"type": "Point", "coordinates": [-76.433448, -2.810202]}, "properties": {"punto": "S0348-SED-004", "componentes": "Sedimento", "n_componentes": 1, "informe": "INFORME N° 00016-2023-OEFA/DEAM-SSIM", "evaluacion": "Evaluación ambiental para la identificación del sitio impactado por actividades de hidrocarburos con código S0348", "registros": 52}}, {"type": "Feature", "geometry": {"type": "Point", "coordinates": [-76.433141, -2.809144]}, "properties": {"punto": "S0348-SED-001", "componentes": "Sedimento", "n_componentes": 1, "informe": "INFORME N° 00016-2023-OEFA/DEAM-SSIM", "evaluacion": "Evaluación ambiental para la identificación del sitio impactado por actividades de hidrocarburos con código S0348", "registros": 52}}, {"type": "Feature", "geometry": {"type": "Point", "coordinates": [-76.433096, -2.809515]}, "properties": {"punto": "S0348-SED-002", "componentes": "Sedimento", "n_componentes": 1, "informe": "INFORME N° 00016-2023-OEFA/DEAM-SSIM", "evaluacion": "Evaluación ambiental para la identificación del sitio impactado por actividades de hidrocarburos con código S0348", "registros": 52}}, {"type": "Feature", "geometry": {"type": "Point", "coordinates": [-76.432989, -2.809958]}, "properties": {"punto": "S0348-SED-003", "componentes": "Sedimento", "n_componentes": 1, "informe": "INFORME N° 00016-2023-OEFA/DEAM-SSIM", "evaluacion": "Evaluación ambiental para la identificación del sitio impactado por actividades de hidrocarburos con código S0348", "registros": 52}}, {"type": "Feature", "geometry": {"type": "Point", "coordinates": [-76.432927, -2.8107]}, "properties": {"punto": "S0348-SED-005", "componentes": "Sedimento", "n_componentes": 1, "informe": "INFORME N° 00016-2023-OEFA/DEAM-SSIM", "evaluacion": "Evaluación ambiental para la identificación del sitio impactado por actividades de hidrocarburos con código S0348", "registros": 52}}, {"type": "Feature", "geometry": {"type": "Point", "coordinates": [-76.432224, -2.809308]}, "properties": {"punto": "S0348-SED-006", "componentes": "Sedimento", "n_componentes": 1, "informe": "INFORME N° 00016-2023-OEFA/DEAM-SSIM", "evaluacion": "Evaluación ambiental para la identificación del sitio impactado por actividades de hidrocarburos con código S0348", "registros": 52}}, {"type": "Feature", "geometry": {"type": "Point", "coordinates": [-76.436378, -2.801308]}, "properties": {"punto": "S0352-SED-001", "componentes": "Sedimento", "n_componentes": 1, "informe": "INFORME N° 00023-2023-OEFA/DEAM-SSIM", "evaluacion": "Evaluación ambiental para la identificación del sitio impactado por actividades de hidrocarburos con código S0352", "registros": 52}}, {"type": "Feature", "geometry": {"type": "Point", "coordinates": [-76.435749, -2.80177]}, "properties": {"punto": "S0352-SED-002", "componentes": "Sedimento", "n_componentes": 1, "informe": "INFORME N° 00023-2023-OEFA/DEAM-SSIM", "evaluacion": "Evaluación ambiental para la identificación del sitio impactado por actividades de hidrocarburos con código S0352", "registros": 52}}, {"type": "Feature", "geometry": {"type": "Point", "coordinates": [-76.436049, -2.803995]}, "properties": {"punto": "S0366-SED-001", "componentes": "Sedimento", "n_componentes": 1, "informe": "INFORME N° 00024-2023-OEFA/DEAM-SSIM", "evaluacion": "Evaluación ambiental para la identificación del sitio impactado por actividades de hidrocarburos con código S0366", "registros": 51}}, {"type": "Feature", "geometry": {"type": "Point", "coordinates": [-76.435915, -2.804854]}, "properties": {"punto": "S0366-SED-002", "componentes": "Sedimento", "n_componentes": 1, "informe": "INFORME N° 00024-2023-OEFA/DEAM-SSIM", "evaluacion": "Evaluación ambiental para la identificación del sitio impactado por actividades de hidrocarburos con código S0366", "registros": 51}}, {"type": "Feature", "geometry": {"type": "Point", "coordinates": [-76.43514, -2.803525]}, "properties": {"punto": "S0366-SED-003", "componentes": "Sedimento", "n_componentes": 1, "informe": "INFORME N° 00024-2023-OEFA/DEAM-SSIM", "evaluacion": "Evaluación ambiental para la identificación del sitio impactado por actividades de hidrocarburos con código S0366", "registros": 51}}, {"type": "Feature", "geometry": {"type": "Point", "coordinates": [-76.435617, -2.804004]}, "properties": {"punto": "S0366-SED-004", "componentes": "Sedimento", "n_componentes": 1, "informe": "INFORME N° 00024-2023-OEFA/DEAM-SSIM", "evaluacion": "Evaluación ambiental para la identificación del sitio impactado por actividades de hidrocarburos con código S0366", "registros": 51}}, {"type": "Feature", "geometry": {"type": "Point", "coordinates": [-76.435421, -2.804981]}, "properties": {"punto": "S0366-SED-005", "componentes": "Sedimento", "n_componentes": 1, "informe": "INFORME N° 00024-2023-OEFA/DEAM-SSIM", "evaluacion": "Evaluación ambiental para la identificación del sitio impactado por actividades de hidrocarburos con código S0366", "registros": 51}}, {"type": "Feature", "geometry": {"type": "Point", "coordinates": [-76.43567, -2.803335]}, "properties": {"punto": "S0353-SED-001", "componentes": "Sedimento", "n_componentes": 1, "informe": "INFORME N° 00034-2023-OEFA/DEAM-SSIM", "evaluacion": "Evaluación ambiental para la identificación del sitio impactado por actividades de hidrocarburos con código S0353", "registros": 52}}, {"type": "Feature", "geometry": {"type": "Point", "coordinates": [-76.435616, -2.802675]}, "properties": {"punto": "S0353-SED-003", "componentes": "Sedimento", "n_componentes": 1, "informe": "INFORME N° 00034-2023-OEFA/DEAM-SSIM", "evaluacion": "Evaluación ambiental para la identificación del sitio impactado por actividades de hidrocarburos con código S0353", "registros": 52}}, {"type": "Feature", "geometry": {"type": "Point", "coordinates": [-76.435571, -2.803091]}, "properties": {"punto": "S0353-SED-002", "componentes": "Sedimento", "n_componentes": 1, "informe": "INFORME N° 00034-2023-OEFA/DEAM-SSIM", "evaluacion": "Evaluación ambiental para la identificación del sitio impactado por actividades de hidrocarburos con código S0353", "registros": 52}}, {"type": "Feature", "geometry": {"type": "Point", "coordinates": [-76.418424, -2.815493]}, "properties": {"punto": "S0350-SED-003", "componentes": "Sedimento", "n_componentes": 1, "informe": "INFORME N° 00044-2023-OEFA/DEAM-SSIM", "evaluacion": "Evaluación ambiental para la identificación del sitio impactado por actividades de hidrocarburos con código S0350", "registros": 19}}, {"type": "Feature", "geometry": {"type": "Point", "coordinates": [-76.431784, -2.80986]}, "properties": {"punto": "S0371-SU-006", "componentes": "Suelo", "n_componentes": 1, "informe": "INFORME N° 00004-2023-OEFA/DEAM-SSIM", "evaluacion": "Evaluación ambiental para la identificación del sitio impactado por actividades de hidrocarburos con código S0371", "registros": 57}}, {"type": "Feature", "geometry": {"type": "Point", "coordinates": [-76.431739, -2.809842]}, "properties": {"punto": "S0371-SU-001", "componentes": "Suelo", "n_componentes": 1, "informe": "INFORME N° 00004-2023-OEFA/DEAM-SSIM", "evaluacion": "Evaluación ambiental para la identificación del sitio impactado por actividades de hidrocarburos con código S0371", "registros": 57}}, {"type": "Feature", "geometry": {"type": "Point", "coordinates": [-76.431604, -2.810231]}, "properties": {"punto": "S0371-SU-005", "componentes": "Suelo", "n_componentes": 1, "informe": "INFORME N° 00004-2023-OEFA/DEAM-SSIM", "evaluacion": "Evaluación ambiental para la identificación del sitio impactado por actividades de hidrocarburos con código S0371", "registros": 57}}, {"type": "Feature", "geometry": {"type": "Point", "coordinates": [-76.431523, -2.809644]}, "properties": {"punto": "S0371-SU-007", "componentes": "Suelo", "n_componentes": 1, "informe": "INFORME N° 00004-2023-OEFA/DEAM-SSIM", "evaluacion": "Evaluación ambiental para la identificación del sitio impactado por actividades de hidrocarburos con código S0371", "registros": 57}}, {"type": "Feature", "geometry": {"type": "Point", "coordinates": [-76.431272, -2.810404]}, "properties": {"punto": "S0371-SU-004", "componentes": "Suelo", "n_componentes": 1, "informe": "INFORME N° 00004-2023-OEFA/DEAM-SSIM", "evaluacion": "Evaluación ambiental para la identificación del sitio impactado por actividades de hidrocarburos con código S0371", "registros": 57}}, {"type": "Feature", "geometry": {"type": "Point", "coordinates": [-76.431235, -2.809924]}, "properties": {"punto": "S0371-SU-002", "componentes": "Suelo", "n_componentes": 1, "informe": "INFORME N° 00004-2023-OEFA/DEAM-SSIM", "evaluacion": "Evaluación ambiental para la identificación del sitio impactado por actividades de hidrocarburos con código S0371", "registros": 57}}, {"type": "Feature", "geometry": {"type": "Point", "coordinates": [-76.431082, -2.810142]}, "properties": {"punto": "S0371-SU-003", "componentes": "Suelo", "n_componentes": 1, "informe": "INFORME N° 00004-2023-OEFA/DEAM-SSIM", "evaluacion": "Evaluación ambiental para la identificación del sitio impactado por actividades de hidrocarburos con código S0371", "registros": 57}}, {"type": "Feature", "geometry": {"type": "Point", "coordinates": [-76.424606, -2.817702]}, "properties": {"punto": "S0364-SU-004", "componentes": "Suelo", "n_componentes": 1, "informe": "INFORME N° 00007-2023-OEFA/DEAM-SSIM", "evaluacion": "Evaluación ambiental para la identificación del sitio impactado por actividades de hidrocarburos con código S0364", "registros": 61}}, {"type": "Feature", "geometry": {"type": "Point", "coordinates": [-76.424507, -2.817575]}, "properties": {"punto": "S0364-SU-005", "componentes": "Suelo", "n_componentes": 1, "informe": "INFORME N° 00007-2023-OEFA/DEAM-SSIM", "evaluacion": "Evaluación ambiental para la identificación del sitio impactado por actividades de hidrocarburos con código S0364", "registros": 61}}, {"type": "Feature", "geometry": {"type": "Point", "coordinates": [-76.42448, -2.817286]}, "properties": {"punto": "S0364-SU-007", "componentes": "Suelo", "n_componentes": 1, "informe": "INFORME N° 00007-2023-OEFA/DEAM-SSIM", "evaluacion": "Evaluación ambiental para la identificación del sitio impactado por actividades de hidrocarburos con código S0364", "registros": 61}}, {"type": "Feature", "geometry": {"type": "Point", "coordinates": [-76.424418, -2.817874]}, "properties": {"punto": "S0364-SU-003", "componentes": "Suelo", "n_componentes": 1, "informe": "INFORME N° 00007-2023-OEFA/DEAM-SSIM", "evaluacion": "Evaluación ambiental para la identificación del sitio impactado por actividades de hidrocarburos con código S0364", "registros": 61}}, {"type": "Feature", "geometry": {"type": "Point", "coordinates": [-76.424418, -2.817874]}, "properties": {"punto": "S0364-SU-DUP1", "componentes": "Suelo", "n_componentes": 1, "informe": "INFORME N° 00007-2023-OEFA/DEAM-SSIM", "evaluacion": "Evaluación ambiental para la identificación del sitio impactado por actividades de hidrocarburos con código S0364", "registros": 61}}, {"type": "Feature", "geometry": {"type": "Point", "coordinates": [-76.424265, -2.81763]}, "properties": {"punto": "S0364-SU-001", "componentes": "Suelo", "n_componentes": 1, "informe": "INFORME N° 00007-2023-OEFA/DEAM-SSIM", "evaluacion": "Evaluación ambiental para la identificación del sitio impactado por actividades de hidrocarburos con código S0364", "registros": 61}}, {"type": "Feature", "geometry": {"type": "Point", "coordinates": [-76.42422, -2.817802]}, "properties": {"punto": "S0364-SU-006", "componentes": "Suelo", "n_componentes": 1, "informe": "INFORME N° 00007-2023-OEFA/DEAM-SSIM", "evaluacion": "Evaluación ambiental para la identificación del sitio impactado por actividades de hidrocarburos con código S0364", "registros": 61}}, {"type": "Feature", "geometry": {"type": "Point", "coordinates": [-76.424166, -2.817702]}, "properties": {"punto": "S0364-SU-002", "componentes": "Suelo", "n_componentes": 1, "informe": "INFORME N° 00007-2023-OEFA/DEAM-SSIM", "evaluacion": "Evaluación ambiental para la identificación del sitio impactado por actividades de hidrocarburos con código S0364", "registros": 61}}, {"type": "Feature", "geometry": {"type": "Point", "coordinates": [-76.433709, -2.810509]}, "properties": {"punto": "S0348-SU-001", "componentes": "Suelo", "n_componentes": 1, "informe": "INFORME N° 00016-2023-OEFA/DEAM-SSIM", "evaluacion": "Evaluación ambiental para la identificación del sitio impactado por actividades de hidrocarburos con código S0348", "registros": 61}}, {"type": "Feature", "geometry": {"type": "Point", "coordinates": [-76.433709, -2.810509]}, "properties": {"punto": "S0348-SU-PROF1", "componentes": "Suelo", "n_componentes": 1, "informe": "INFORME N° 00016-2023-OEFA/DEAM-SSIM", "evaluacion": "Evaluación ambiental para la identificación del sitio impactado por actividades de hidrocarburos con código S0348", "registros": 51}}, {"type": "Feature", "geometry": {"type": "Point", "coordinates": [-75.864881, -2.319]}, "properties": {"punto": "S0464-HB-001", "componentes": "Biota", "n_componentes": 1, "informe": "INFORME N° 00032-2022-OEFA/DEAM-SSIM", "evaluacion": "Evaluación ambiental para la identificación del sitio impactado por actividades de hidrocarburos con código S0464", "registros": 72}}, {"type": "Feature", "geometry": {"type": "Point", "coordinates": [-75.864901, -2.322357]}, "properties": {"punto": "S0464-HB-005", "componentes": "Biota", "n_componentes": 1, "informe": "INFORME N° 00032-2022-OEFA/DEAM-SSIM", "evaluacion": "Evaluación ambiental para la identificación del sitio impactado por actividades de hidrocarburos con código S0464", "registros": 48}}, {"type": "Feature", "geometry": {"type": "Point", "coordinates": [-75.866662, -2.31975]}, "properties": {"punto": "S0464-HB-002", "componentes": "Biota", "n_componentes": 1, "informe": "INFORME N° 00032-2022-OEFA/DEAM-SSIM", "evaluacion": "Evaluación ambiental para la identificación del sitio impactado por actividades de hidrocarburos con código S0464", "registros": 73}}, {"type": "Feature", "geometry": {"type": "Point", "coordinates": [-75.865611, -2.321415]}, "properties": {"punto": "S0464-HB-003", "componentes": "Biota", "n_componentes": 1, "informe": "INFORME N° 00032-2022-OEFA/DEAM-SSIM", "evaluacion": "Evaluación ambiental para la identificación del sitio impactado por actividades de hidrocarburos con código S0464", "registros": 73}}, {"type": "Feature", "geometry": {"type": "Point", "coordinates": [-75.864083, -2.322782]}, "properties": {"punto": "S0464-HB-004", "componentes": "Biota", "n_componentes": 1, "informe": "INFORME N° 00032-2022-OEFA/DEAM-SSIM", "evaluacion": "Evaluación ambiental para la identificación del sitio impactado por actividades de hidrocarburos con código S0464", "registros": 73}}, {"type": "Feature", "geometry": {"type": "Point", "coordinates": [-76.230339, -2.594648]}, "properties": {"punto": "S0261-HB-001-O", "componentes": "Biota", "n_componentes": 1, "informe": "INFORME N° 00076-2022-OEFA/DEAM-SSIM", "evaluacion": "Evaluación ambiental para la identificación del sitio impactado por actividades de hidrocarburos con código S0261", "registros": 23}}, {"type": "Feature", "geometry": {"type": "Point", "coordinates": [-76.230339, -2.594648]}, "properties": {"punto": "S0261-HB-001-P", "componentes": "Biota", "n_componentes": 1, "informe": "INFORME N° 00076-2022-OEFA/DEAM-SSIM", "evaluacion": "Evaluación ambiental para la identificación del sitio impactado por actividades de hidrocarburos con código S0261", "registros": 23}}, {"type": "Feature", "geometry": {"type": "Point", "coordinates": [-76.229744, -2.594097]}, "properties": {"punto": "S0261-HB-002-O", "componentes": "Biota", "n_componentes": 1, "informe": "INFORME N° 00076-2022-OEFA/DEAM-SSIM", "evaluacion": "Evaluación ambiental para la identificación del sitio impactado por actividades de hidrocarburos con código S0261", "registros": 23}}, {"type": "Feature", "geometry": {"type": "Point", "coordinates": [-76.229744, -2.594097]}, "properties": {"punto": "S0261-HB-002-P", "componentes": "Biota", "n_componentes": 1, "informe": "INFORME N° 00076-2022-OEFA/DEAM-SSIM", "evaluacion": "Evaluación ambiental para la identificación del sitio impactado por actividades de hidrocarburos con código S0261", "registros": 23}}, {"type": "Feature", "geometry": {"type": "Point", "coordinates": [-76.229744, -2.594097]}, "properties": {"punto": "S0261-HB-002", "componentes": "Biota", "n_componentes": 1, "informe": "INFORME N° 00076-2022-OEFA/DEAM-SSIM", "evaluacion": "Evaluación ambiental para la identificación del sitio impactado por actividades de hidrocarburos con código S0261", "registros": 3}}, {"type": "Feature", "geometry": {"type": "Point", "coordinates": [-75.862395, -2.327324]}, "properties": {"punto": "S0473-HB-001", "componentes": "Biota", "n_componentes": 1, "informe": "INFORME N° 00004-2022-OEFA/DEAM-SSIM", "evaluacion": "Evaluación ambiental para la identificación del sitio impactado por actividades de hidrocarburos con código S0473", "registros": 32}}, {"type": "Feature", "geometry": {"type": "Point", "coordinates": [-75.862143, -2.326945]}, "properties": {"punto": "S0473-HB-002", "componentes": "Biota", "n_componentes": 1, "informe": "INFORME N° 00004-2022-OEFA/DEAM-SSIM", "evaluacion": "Evaluación ambiental para la identificación del sitio impactado por actividades de hidrocarburos con código S0473", "registros": 19}}, {"type": "Feature", "geometry": {"type": "Point", "coordinates": [-75.867339, -2.322997]}, "properties": {"punto": "S0471-HB-005-O", "componentes": "Biota", "n_componentes": 1, "informe": "INFORME N° 00003-2022-OEFA/DEAM-SSIM", "evaluacion": "Evaluación ambiental para la identificación del sitio impactado por actividades de hidrocarburos con código S0471", "registros": 19}}, {"type": "Feature", "geometry": {"type": "Point", "coordinates": [-75.867339, -2.322997]}, "properties": {"punto": "S0471-HB-005-P-R1", "componentes": "Biota", "n_componentes": 1, "informe": "INFORME N° 00003-2022-OEFA/DEAM-SSIM", "evaluacion": "Evaluación ambiental para la identificación del sitio impactado por actividades de hidrocarburos con código S0471", "registros": 19}}, {"type": "Feature", "geometry": {"type": "Point", "coordinates": [-75.867339, -2.322997]}, "properties": {"punto": "S0471-HB-005-P-R2", "componentes": "Biota", "n_componentes": 1, "informe": "INFORME N° 00003-2022-OEFA/DEAM-SSIM", "evaluacion": "Evaluación ambiental para la identificación del sitio impactado por actividades de hidrocarburos con código S0471", "registros": 19}}, {"type": "Feature", "geometry": {"type": "Point", "coordinates": [-75.867339, -2.322997]}, "properties": {"punto": "S0471-HB-005-P-R3", "componentes": "Biota", "n_componentes": 1, "informe": "INFORME N° 00003-2022-OEFA/DEAM-SSIM", "evaluacion": "Evaluación ambiental para la identificación del sitio impactado por actividades de hidrocarburos con código S0471", "registros": 19}}, {"type": "Feature", "geometry": {"type": "Point", "coordinates": [-75.867339, -2.322997]}, "properties": {"punto": "S0471-HB-005", "componentes": "Biota", "n_componentes": 1, "informe": "INFORME N° 00003-2022-OEFA/DEAM-SSIM", "evaluacion": "Evaluación ambiental para la identificación del sitio impactado por actividades de hidrocarburos con código S0471", "registros": 4}}, {"type": "Feature", "geometry": {"type": "Point", "coordinates": [-75.868119, -2.319369]}, "properties": {"punto": "S0463-HB-004-O", "componentes": "Biota", "n_componentes": 1, "informe": "INFORME N° 00010-2022-OEFA/DEAM-SSIM", "evaluacion": "Evaluación ambiental para la identificación del sitio impactado por actividades de hidrocarburos con código S0463", "registros": 39}}, {"type": "Feature", "geometry": {"type": "Point", "coordinates": [-75.868119, -2.319369]}, "properties": {"punto": "S0463-HB-004-P-R1", "componentes": "Biota", "n_componentes": 1, "informe": "INFORME N° 00010-2022-OEFA/DEAM-SSIM", "evaluacion": "Evaluación ambiental para la identificación del sitio impactado por actividades de hidrocarburos con código S0463", "registros": 39}}, {"type": "Feature", "geometry": {"type": "Point", "coordinates": [-75.868119, -2.319369]}, "properties": {"punto": "S0463-HB-004-P-R2", "componentes": "Biota", "n_componentes": 1, "informe": "INFORME N° 00010-2022-OEFA/DEAM-SSIM", "evaluacion": "Evaluación ambiental para la identificación del sitio impactado por actividades de hidrocarburos con código S0463", "registros": 39}}, {"type": "Feature", "geometry": {"type": "Point", "coordinates": [-75.868119, -2.319369]}, "properties": {"punto": "S0463-HB-004-P-R3", "componentes": "Biota", "n_componentes": 1, "informe": "INFORME N° 00010-2022-OEFA/DEAM-SSIM", "evaluacion": "Evaluación ambiental para la identificación del sitio impactado por actividades de hidrocarburos con código S0463", "registros": 39}}, {"type": "Feature", "geometry": {"type": "Point", "coordinates": [-75.868596, -2.319568]}, "properties": {"punto": "S0463-HB-003-O", "componentes": "Biota", "n_componentes": 1, "informe": "INFORME N° 00010-2022-OEFA/DEAM-SSIM", "evaluacion": "Evaluación ambiental para la identificación del sitio impactado por actividades de hidrocarburos con código S0463", "registros": 39}}, {"type": "Feature", "geometry": {"type": "Point", "coordinates": [-75.868596, -2.319568]}, "properties": {"punto": "S0463-HB-003-P-R1", "componentes": "Biota", "n_componentes": 1, "informe": "INFORME N° 00010-2022-OEFA/DEAM-SSIM", "evaluacion": "Evaluación ambiental para la identificación del sitio impactado por actividades de hidrocarburos con código S0463", "registros": 39}}, {"type": "Feature", "geometry": {"type": "Point", "coordinates": [-75.868596, -2.319568]}, "properties": {"punto": "S0463-HB-003-P-R2", "componentes": "Biota", "n_componentes": 1, "informe": "INFORME N° 00010-2022-OEFA/DEAM-SSIM", "evaluacion": "Evaluación ambiental para la identificación del sitio impactado por actividades de hidrocarburos con código S0463", "registros": 39}}, {"type": "Feature", "geometry": {"type": "Point", "coordinates": [-75.868596, -2.319568]}, "properties": {"punto": "S0463-HB-003-P-R3", "componentes": "Biota", "n_componentes": 1, "informe": "INFORME N° 00010-2022-OEFA/DEAM-SSIM", "evaluacion": "Evaluación ambiental para la identificación del sitio impactado por actividades de hidrocarburos con código S0463", "registros": 39}}, {"type": "Feature", "geometry": {"type": "Point", "coordinates": [-75.868596, -2.319568]}, "properties": {"punto": "S0463-HB-003", "componentes": "Biota", "n_componentes": 1, "informe": "INFORME N° 00010-2022-OEFA/DEAM-SSIM", "evaluacion": "Evaluación ambiental para la identificación del sitio impactado por actividades de hidrocarburos con código S0463", "registros": 5}}, {"type": "Feature", "geometry": {"type": "Point", "coordinates": [-75.868119, -2.319369]}, "properties": {"punto": "S0463-HB-004", "componentes": "Biota", "n_componentes": 1, "informe": "INFORME N° 00010-2022-OEFA/DEAM-SSIM", "evaluacion": "Evaluación ambiental para la identificación del sitio impactado por actividades de hidrocarburos con código S0463", "registros": 8}}, {"type": "Feature", "geometry": {"type": "Point", "coordinates": [-75.864901, -2.322357]}, "properties": {"punto": "S0464-HB-005-O", "componentes": "Biota", "n_componentes": 1, "informe": "INFORME N° 00032-2022-OEFA/DEAM-SSIM", "evaluacion": "Evaluación ambiental para la identificación del sitio impactado por actividades de hidrocarburos con código S0464", "registros": 27}}, {"type": "Feature", "geometry": {"type": "Point", "coordinates": [-75.864901, -2.322357]}, "properties": {"punto": "S0464-HB-005-P", "componentes": "Biota", "n_componentes": 1, "informe": "INFORME N° 00032-2022-OEFA/DEAM-SSIM", "evaluacion": "Evaluación ambiental para la identificación del sitio impactado por actividades de hidrocarburos con código S0464", "registros": 27}}, {"type": "Feature", "geometry": {"type": "Point", "coordinates": [-75.866085, -2.317218]}, "properties": {"punto": "S0462-HB-001", "componentes": "Biota", "n_componentes": 1, "informe": "INFORME N° 00011-2022-OEFA/DEAM-SSIM", "evaluacion": "Evaluación ambiental para la identificación del sitio impactado por actividades de hidrocarburos con código S0462", "registros": 14}}, {"type": "Feature", "geometry": {"type": "Point", "coordinates": [-75.866518, -2.318493]}, "properties": {"punto": "S0462-HB-002", "componentes": "Biota", "n_componentes": 1, "informe": "INFORME N° 00011-2022-OEFA/DEAM-SSIM", "evaluacion": "Evaluación ambiental para la identificación del sitio impactado por actividades de hidrocarburos con código S0462", "registros": 19}}, {"type": "Feature", "geometry": {"type": "Point", "coordinates": [-75.866536, -2.319361]}, "properties": {"punto": "S0462-HB-003", "componentes": "Biota", "n_componentes": 1, "informe": "INFORME N° 00011-2022-OEFA/DEAM-SSIM", "evaluacion": "Evaluación ambiental para la identificación del sitio impactado por actividades de hidrocarburos con código S0462", "registros": 20}}, {"type": "Feature", "geometry": {"type": "Point", "coordinates": [-76.191265, -2.776602]}, "properties": {"punto": "S0392-HB-001", "componentes": "Biota", "n_componentes": 1, "informe": "INFORME N° 00102-2021-OEFA/DEAM-SSIM", "evaluacion": "Evaluación Ambiental para la identificación del sitio impactado por actividades de hidrocarburos con código S0392", "registros": 2}}]}