{"type": "FeatureCollection", "metadata": {"titulo": "Oleoducto Norperuano (traza por tramos)", "fuente": "Petroperú, vía OSINERGMIN GISEM — progresivas kilométricas oficiales (capa 17).", "estado": "verificado", "actualizado": "2026-07-24", "nota": "Polilíneas interpoladas entre progresivas cada 1 km; la traza es indicativa a esa escala."}, "features": [{"type": "Feature", "geometry": {"type": "LineString", "coordinates": [[-77.50463, -4.65033], [-77.51132, -4.64732], [-77.51976, -4.64463], [-77.52806, -4.64122], [-77.53621, -4.63763], [-77.54445, -4.63418], [-77.55264, -4.63086], [-77.56064, -4.62752], [-77.56877, -4.62411], [-77.5768, -4.62091], [-77.58516, -4.61821], [-77.59375, -4.61612], [-77.60244, -4.61384], [-77.61113, -4.61214], [-77.6197, -4.6102], [-77.62838, -4.60832], [-77.63632, -4.60451], [-77.64403, -4.60235], [-77.65184, -4.60243], [-77.65895, -4.60546], [-77.6669, -4.60958], [-77.67474, -4.61324], [-77.68359, -4.6132], [-77.6921, -4.61231], [-77.70078, -4.61229], [-77.70971, -4.61171], [-77.71867, -4.61108], [-77.7276, -4.61064], [-77.73662, -4.6101], [-77.74458, -4.61149], [-77.7484, -4.61954], [-77.75185, -4.62784], [-77.75495, -4.63635], [-77.75932, -4.64406], [-77.76288, -4.65223], [-77.76909, -4.65843], [-77.77572, -4.66455], [-77.78241, -4.67031], [-77.78813, -4.67717], [-77.79581, -4.68084], [-77.80344, -4.68562], [-77.811, -4.69046], [-77.81221, -4.69921], [-77.81544, -4.70757], [-77.81946, -4.71555], [-77.8231, -4.72372], [-77.82639, -4.73207], [-77.83047, -4.74004], [-77.83329, -4.7485], [-77.83885, -4.75516], [-77.84573, -4.76045], [-77.85249, -4.76629], [-77.85911, -4.77231], [-77.86616, -4.77783], [-77.87166, -4.78403], [-77.87867, -4.78938], [-77.88551, -4.79514], [-77.8927, -4.80036], [-77.89905, -4.80654], [-77.90563, -4.81249], [-77.91273, -4.81745], [-77.92022, -4.82201], [-77.92819, -4.82598], [-77.93613, -4.82989], [-77.94463, -4.83274], [-77.95178, -4.83755], [-77.95833, -4.84281], [-77.96657, -4.84577], [-77.97343, -4.85114], [-77.98082, -4.85609], [-77.98765, -4.86149], [-77.99477, -4.86675], [-78.00153, -4.87254], [-78.00855, -4.878], [-78.01568, -4.88327], [-78.02168, -4.88978], [-78.02807, -4.89594], [-78.03527, -4.9012], [-78.04257, -4.90625], [-78.05029, -4.9106], [-78.05875, -4.91356], [-78.06691, -4.91702], [-78.07449, -4.92154], [-78.08284, -4.92409], [-78.09083, -4.92537], [-78.09917, -4.92733], [-78.108, -4.9278], [-78.11673, -4.92863], [-78.12526, -4.92867], [-78.13353, -4.93065], [-78.14217, -4.92942], [-78.14976, -4.9252], [-78.15859, -4.92551], [-78.16693, -4.9275], [-78.17489, -4.92907], [-78.18203, -4.93386], [-78.18984, -4.93765], [-78.1968, -4.94315], [-78.20328, -4.94847], [-78.20889, -4.9551], [-78.21575, -4.9605], [-78.2198, -4.96715], [-78.22504, -4.97397], [-78.22873, -4.98135], [-78.23424, -4.98862], [-78.23964, -4.99505], [-78.24152, -5.0038], [-78.2482, -5.0097], [-78.25169, -5.01777], [-78.25438, -5.02613], [-78.25802, -5.03439], [-78.26022, -5.04285], [-78.26456, -5.05028], [-78.26945, -5.05761], [-78.27397, -5.06453], [-78.28086, -5.06983], [-78.28823, -5.07362], [-78.29475, -5.07886], [-78.30318, -5.08052], [-78.31097, -5.08428], [-78.31336, -5.09187], [-78.31907, -5.09814], [-78.32712, -5.10164], [-78.33125, -5.1086], [-78.33281, -5.11684], [-78.3307, -5.12506], [-78.32277, -5.12823], [-78.31727, -5.13335], [-78.31246, -5.14058], [-78.30619, -5.14703], [-78.29977, -5.15335], [-78.29555, -5.16002], [-78.29123, -5.1669], [-78.29371, -5.17505], [-78.30075, -5.17988], [-78.30842, -5.18468], [-78.31627, -5.18862], [-78.32165, -5.1956], [-78.32702, -5.20216], [-78.32853, -5.21064], [-78.33454, -5.2151], [-78.34134, -5.22072], [-78.34956, -5.22424], [-78.35684, -5.22951], [-78.36254, -5.23604], [-78.36025, -5.24349], [-78.36587, -5.24894], [-78.37103, -5.25633], [-78.37429, -5.26435], [-78.37943, -5.27039], [-78.38658, -5.27373], [-78.39046, -5.28045], [-78.39608, -5.28285], [-78.40512, -5.28259], [-78.4135, -5.28423], [-78.41949, -5.28927], [-78.42501, -5.29538], [-78.42886, -5.30188], [-78.43054, -5.31059], [-78.43803, -5.31355], [-78.44347, -5.31961], [-78.44504, -5.32834], [-78.44933, -5.336], [-78.45179, -5.34309], [-78.45415, -5.35124], [-78.4534, -5.36012], [-78.45223, -5.36876], [-78.45189, -5.37732], [-78.45147, -5.38578], [-78.44906, -5.39424], [-78.44831, -5.40256], [-78.45057, -5.41096], [-78.44979, -5.41968], [-78.45401, -5.4272], [-78.46185, -5.43155], [-78.46927, -5.43653], [-78.47583, -5.44186], [-78.48372, -5.4461], [-78.48933, -5.45263], [-78.49688, -5.45727], [-78.50355, -5.46263], [-78.51077, -5.4677], [-78.51823, -5.47216], [-78.52707, -5.47368], [-78.53566, -5.47536], [-78.54209, -5.48152], [-78.54738, -5.48859], [-78.55381, -5.49478], [-78.55478, -5.50173], [-78.55095, -5.50962], [-78.5474, -5.51644], [-78.54653, -5.52525], [-78.5474, -5.53419], [-78.54775, -5.54321], [-78.54794, -5.55206], [-78.55113, -5.56038], [-78.55281, -5.56893], [-78.55778, -5.57629], [-78.56122, -5.58458], [-78.56801, -5.59042], [-78.57511, -5.596], [-78.58141, -5.60231], [-78.58684, -5.60953], [-78.59226, -5.61672], [-78.59766, -5.62396], [-78.60295, -5.63126], [-78.60825, -5.63859], [-78.6135, -5.64589], [-78.61878, -5.65321], [-78.62407, -5.66058], [-78.63036, -5.66708], [-78.63584, -5.67123]]}, "properties": {"ramal": "II", "tramo": "Estación N° 5 - Estación N° 7", "km_inicio": 306.1, "km_fin": 518.5, "progresivas": 212}}, {"type": "Feature", "geometry": {"type": "LineString", "coordinates": [[-78.63599, -5.67114], [-78.63696, -5.67062], [-78.64466, -5.67547], [-78.65252, -5.67973], [-78.66039, -5.68378], [-78.66814, -5.68833], [-78.67532, -5.6933], [-78.67443, -5.70174], [-78.67672, -5.70902], [-78.6836, -5.71486], [-78.6902, -5.72086], [-78.69757, -5.72597], [-78.70526, -5.73041], [-78.70937, -5.73791], [-78.71658, -5.74282], [-78.72098, -5.75042], [-78.7262, -5.75771], [-78.73142, -5.76503], [-78.73127, -5.77336], [-78.73318, -5.78191], [-78.73366, -5.78989], [-78.73623, -5.79818], [-78.74006, -5.80582], [-78.74324, -5.81416], [-78.74676, -5.8222], [-78.75031, -5.83049], [-78.75716, -5.83625], [-78.7642, -5.84149], [-78.76883, -5.84882], [-78.77515, -5.85506], [-78.77808, -5.86318], [-78.7835, -5.8703], [-78.7909, -5.87498], [-78.79959, -5.87558], [-78.8069, -5.87822], [-78.81529, -5.88093], [-78.82118, -5.88703], [-78.82974, -5.88974], [-78.83424, -5.89641], [-78.83987, -5.90295], [-78.83891, -5.91183], [-78.83948, -5.92075], [-78.83837, -5.92899], [-78.84274, -5.93602], [-78.84858, -5.94283], [-78.84809, -5.95038], [-78.84623, -5.95807], [-78.84933, -5.96623], [-78.85476, -5.97286], [-78.85842, -5.9804], [-78.86063, -5.98888], [-78.86045, -5.99792], [-78.86255, -6.00664], [-78.86451, -6.01503], [-78.8699, -6.0221], [-78.87365, -6.02957], [-78.88122, -6.03359], [-78.88913, -6.03713], [-78.89634, -6.04242], [-78.90447, -6.0422], [-78.91292, -6.04074], [-78.92179, -6.03949], [-78.9285, -6.03377], [-78.93421, -6.02696], [-78.94256, -6.02375], [-78.95066, -6.02004], [-78.95817, -6.01541], [-78.96593, -6.01201], [-78.97357, -6.01619], [-78.97999, -6.02007], [-78.98798, -6.02409], [-78.99625, -6.02231], [-79.00424, -6.02517], [-79.0129, -6.02573], [-79.02103, -6.02883], [-79.02903, -6.03247], [-79.0366, -6.03675], [-79.04167, -6.04264], [-79.044, -6.05106], [-79.05155, -6.05598], [-79.05903, -6.06092], [-79.06649, -6.06585], [-79.07392, -6.06804], [-79.08192, -6.0646], [-79.09002, -6.06056], [-79.0981, -6.05651], [-79.10604, -6.05254], [-79.11366, -6.04779], [-79.12153, -6.04388], [-79.12923, -6.03939], [-79.13574, -6.03334], [-79.14101, -6.0264], [-79.14677, -6.01968], [-79.15401, -6.0146], [-79.16021, -6.00826], [-79.16665, -6.00205], [-79.17323, -5.99624], [-79.18115, -5.99239], [-79.18924, -5.98899], [-79.19533, -5.98281], [-79.20282, -5.97798], [-79.21054, -5.97347], [-79.21708, -5.96757], [-79.21986, -5.95981], [-79.22465, -5.95303], [-79.23308, -5.95116], [-79.24082, -5.94735], [-79.24857, -5.94341], [-79.25647, -5.94265], [-79.26423, -5.93822], [-79.27286, -5.93531], [-79.28165, -5.93388], [-79.29033, -5.93153], [-79.29883, -5.92948], [-79.30605, -5.92471], [-79.3131, -5.9211], [-79.3201, -5.91651], [-79.32656, -5.91117], [-79.33188, -5.90413], [-79.33247, -5.89584], [-79.33561, -5.88785], [-79.33885, -5.87978], [-79.34659, -5.87528], [-79.35202, -5.86879], [-79.35394, -5.86066], [-79.34961, -5.85595], [-79.35487, -5.84921], [-79.35867, -5.84245], [-79.3653, -5.83761], [-79.37087, -5.8306], [-79.37589, -5.82301], [-79.37657, -5.81906]]}, "properties": {"ramal": "II", "tramo": "Estación N° 7 - Estación N° 9", "km_inicio": 518.5, "km_fin": 648.9, "progresivas": 132}}, {"type": "Feature", "geometry": {"type": "LineString", "coordinates": [[-79.37667, -5.81929], [-79.37816, -5.81517], [-79.37578, -5.80712], [-79.37798, -5.7992], [-79.38612, -5.7955], [-79.39076, -5.78813], [-79.39611, -5.78186], [-79.40462, -5.78293], [-79.41321, -5.78508], [-79.42113, -5.78827], [-79.42799, -5.78667], [-79.43674, -5.78833], [-79.4453, -5.79036], [-79.45357, -5.78688], [-79.46063, -5.78668], [-79.46492, -5.79391], [-79.46841, -5.80156], [-79.47327, -5.80849], [-79.47992, -5.81408], [-79.48499, -5.82081], [-79.49313, -5.82278], [-79.49732, -5.82992], [-79.50278, -5.83419], [-79.50867, -5.83883], [-79.5172, -5.83693], [-79.52081, -5.8433], [-79.52375, -5.85157], [-79.52687, -5.85938], [-79.53267, -5.8664], [-79.53992, -5.86827], [-79.5488, -5.86898], [-79.55736, -5.8696], [-79.56458, -5.86709], [-79.57101, -5.86141], [-79.5789, -5.85783], [-79.58503, -5.85702], [-79.59426, -5.85406], [-79.60255, -5.85261], [-79.61104, -5.8522], [-79.61914, -5.85334], [-79.6276, -5.85527], [-79.63614, -5.85527], [-79.64359, -5.85428], [-79.65165, -5.85747], [-79.65745, -5.86398], [-79.66559, -5.86484], [-79.67443, -5.86564], [-79.68341, -5.86586], [-79.69241, -5.86684], [-79.70125, -5.86806], [-79.71005, -5.86721], [-79.71882, -5.86503], [-79.72767, -5.86347], [-79.73663, -5.86273], [-79.74563, -5.86279], [-79.75462, -5.86337], [-79.76367, -5.86391], [-79.77267, -5.86438], [-79.7817, -5.86485], [-79.79072, -5.86532], [-79.79974, -5.86579], [-79.80877, -5.86626], [-79.81778, -5.86673], [-79.82683, -5.8672], [-79.83584, -5.86767], [-79.84493, -5.86815], [-79.8539, -5.86861], [-79.86291, -5.86908], [-79.87192, -5.86906], [-79.88093, -5.86949], [-79.88996, -5.86995], [-79.89897, -5.87041], [-79.90801, -5.87087], [-79.91701, -5.87133], [-79.92601, -5.87178], [-79.93509, -5.87224], [-79.94409, -5.87269], [-79.95308, -5.87314], [-79.96213, -5.8736], [-79.97113, -5.87406], [-79.98014, -5.87451], [-79.98917, -5.87495], [-79.99818, -5.87541], [-80.00721, -5.87586], [-80.01621, -5.87631], [-80.02531, -5.87676], [-80.0343, -5.8772], [-80.04326, -5.87763], [-80.05228, -5.87807], [-80.0613, -5.87852], [-80.07025, -5.87896], [-80.07928, -5.8794], [-80.08832, -5.87985], [-80.09733, -5.88076], [-80.10629, -5.88175], [-80.11534, -5.88275], [-80.12426, -5.88374], [-80.13322, -5.88473], [-80.14218, -5.88574], [-80.15123, -5.88675], [-80.16016, -5.88774], [-80.16913, -5.88874], [-80.17808, -5.88973], [-80.18711, -5.89075], [-80.19604, -5.89174], [-80.20498, -5.89273], [-80.21395, -5.89372], [-80.22293, -5.89472], [-80.23189, -5.89572], [-80.24087, -5.89671], [-80.24983, -5.8977], [-80.25884, -5.8987], [-80.26778, -5.89969], [-80.2768, -5.90069], [-80.28573, -5.90168], [-80.29473, -5.90268], [-80.30368, -5.90367], [-80.31265, -5.90465], [-80.3216, -5.90565], [-80.33057, -5.90664], [-80.33953, -5.90763], [-80.34852, -5.90863], [-80.35747, -5.90962], [-80.3665, -5.91062], [-80.37543, -5.91161], [-80.38442, -5.9126], [-80.39336, -5.91359], [-80.40237, -5.91459], [-80.41131, -5.91558], [-80.4203, -5.91657], [-80.42924, -5.91755], [-80.43829, -5.91855], [-80.44721, -5.91953], [-80.45617, -5.92069], [-80.46509, -5.92195], [-80.4741, -5.92324], [-80.48299, -5.92449], [-80.49194, -5.92577], [-80.50085, -5.92702], [-80.50977, -5.92828], [-80.51871, -5.92954], [-80.52768, -5.93081], [-80.53661, -5.93207], [-80.54553, -5.93332], [-80.55449, -5.93459], [-80.56346, -5.93587], [-80.57207, -5.93822], [-80.58038, -5.94187], [-80.58862, -5.94549], [-80.5969, -5.94912], [-80.60514, -5.95275], [-80.61342, -5.95641], [-80.62167, -5.96003], [-80.62997, -5.96364], [-80.63868, -5.96559], [-80.6477, -5.96657], [-80.65667, -5.96633], [-80.66565, -5.96562], [-80.67435, -5.96341], [-80.68297, -5.96072], [-80.6916, -5.95804], [-80.70029, -5.95534], [-80.70887, -5.95267], [-80.71746, -5.95], [-80.72608, -5.94731], [-80.73477, -5.94461], [-80.74335, -5.94193], [-80.75196, -5.93924], [-80.76055, -5.93656], [-80.76923, -5.93384], [-80.77781, -5.93115], [-80.78642, -5.92847], [-80.79504, -5.92579], [-80.80368, -5.9231], [-80.81229, -5.92043], [-80.82093, -5.91773], [-80.82952, -5.91505], [-80.83822, -5.91234], [-80.84679, -5.90967], [-80.85543, -5.90697], [-80.86405, -5.90427], [-80.87275, -5.90157], [-80.88131, -5.89891], [-80.88987, -5.89622], [-80.89848, -5.89353], [-80.90713, -5.89083], [-80.91573, -5.88815], [-80.92438, -5.88546], [-80.93299, -5.88278], [-80.94167, -5.88006], [-80.95024, -5.87738], [-80.95885, -5.8747], [-80.96747, -5.872], [-80.97608, -5.86931], [-80.98471, -5.86661], [-80.99335, -5.86391], [-81.00193, -5.86118], [-81.0081, -5.8545], [-81.01419, -5.84789], [-81.02029, -5.84127], [-81.02638, -5.83465], [-81.03339, -5.82957], [-81.04209, -5.82905], [-81.05035, -5.82916], [-81.05556, -5.82215], [-81.05893, -5.81414], [-81.06053, -5.80534], [-81.06235, -5.80299]]}, "properties": {"ramal": "II", "tramo": "Estación N° 9 - Terminal Marítimo Bayóvar", "km_inicio": 649.0, "km_fin": 855.4, "progresivas": 208}}, {"type": "Feature", "geometry": {"type": "LineString", "coordinates": [[-76.45563, -2.80337], [-76.46326, -2.79898], [-76.47114, -2.79461], [-76.47899, -2.79022], [-76.48687, -2.78587], [-76.49472, -2.78148], [-76.50258, -2.77709], [-76.51063, -2.77347], [-76.51962, -2.7734], [-76.52861, -2.7733], [-76.5376, -2.7732], [-76.54566, -2.77555], [-76.55169, -2.78224], [-76.56155, -2.79704], [-76.5651, -2.80524], [-76.56889, -2.81336], [-76.5726, -2.82157], [-76.57998, -2.83793], [-76.58365, -2.84609], [-76.58533, -2.8548], [-76.58604, -2.86366], [-76.58772, -2.87239], [-76.59147, -2.88051], [-76.59523, -2.88861], [-76.59901, -2.89673], [-76.6028, -2.90484], [-76.60655, -2.91293], [-76.61033, -2.92102], [-76.61411, -2.92915], [-76.61789, -2.93728], [-76.62164, -2.94541], [-76.62542, -2.9535], [-76.62919, -2.96165], [-76.63293, -2.96979], [-76.63666, -2.9779], [-76.64037, -2.98606], [-76.64407, -2.99422], [-76.64778, -3.0024], [-76.6515, -3.01058], [-76.65523, -3.01879], [-76.65882, -3.02706], [-76.66239, -3.03529], [-76.66592, -3.0435], [-76.66949, -3.05175], [-76.67304, -3.05993], [-76.6766, -3.0682], [-76.68015, -3.07645], [-76.68374, -3.08466], [-76.68728, -3.09292], [-76.69085, -3.1012], [-76.69441, -3.10949], [-76.69797, -3.11776], [-76.70145, -3.12604], [-76.70483, -3.13425], [-76.70872, -3.14229], [-76.71365, -3.14977], [-76.71857, -3.15727], [-76.7235, -3.16475], [-76.72849, -3.17221], [-76.73347, -3.17973], [-76.73846, -3.1872], [-76.74344, -3.19464], [-76.74847, -3.20209], [-76.7535, -3.20952], [-76.75855, -3.21698], [-76.7636, -3.22442], [-76.76865, -3.23184], [-76.77374, -3.23929], [-76.77879, -3.24677], [-76.78387, -3.25423], [-76.78894, -3.2617], [-76.79401, -3.26917], [-76.79907, -3.27663], [-76.80323, -3.28452], [-76.8082, -3.29203], [-76.81318, -3.29953], [-76.81816, -3.30705], [-76.82315, -3.31457], [-76.82813, -3.3221], [-76.83312, -3.32962], [-76.83837, -3.3369], [-76.84302, -3.34459], [-76.848, -3.3521], [-76.85299, -3.35963], [-76.85797, -3.36714], [-76.86296, -3.37467], [-76.86793, -3.3822], [-76.87293, -3.38971], [-76.87793, -3.39721], [-76.88314, -3.4045], [-76.8878, -3.41206], [-76.89277, -3.41951], [-76.89776, -3.42702], [-76.90271, -3.43444], [-76.90767, -3.44189], [-76.91275, -3.44926], [-76.91788, -3.45665], [-76.92298, -3.46398], [-76.92812, -3.47139], [-76.93324, -3.47882], [-76.93838, -3.48625], [-76.94352, -3.49367], [-76.94865, -3.5011], [-76.95378, -3.50853], [-76.95891, -3.51596], [-76.96404, -3.52339], [-76.96917, -3.53081], [-76.97427, -3.53826], [-76.97942, -3.54568], [-76.98454, -3.5531], [-76.98969, -3.56051], [-76.9948, -3.56796], [-76.99991, -3.57538], [-77.00504, -3.58281], [-77.01016, -3.59024], [-77.0153, -3.59767], [-77.02042, -3.60509], [-77.02555, -3.61252], [-77.03067, -3.61995], [-77.0358, -3.62738], [-77.04094, -3.6348], [-77.04608, -3.64223], [-77.05121, -3.64965], [-77.05634, -3.65708], [-77.06146, -3.66449], [-77.0666, -3.67191], [-77.07174, -3.67933], [-77.07687, -3.68676], [-77.08199, -3.6942], [-77.08711, -3.70163], [-77.09223, -3.70907], [-77.09735, -3.71651], [-77.10332, -3.72249], [-77.10698, -3.73058], [-77.11208, -3.73803], [-77.11717, -3.74548], [-77.12226, -3.75294], [-77.12736, -3.76039], [-77.13244, -3.76785], [-77.13752, -3.77532], [-77.14259, -3.78279], [-77.14766, -3.79025], [-77.15394, -3.79631], [-77.16205, -3.80021], [-77.16733, -3.80748], [-77.17247, -3.81488], [-77.17762, -3.82228], [-77.18277, -3.82967], [-77.1879, -3.83707], [-77.19304, -3.84447], [-77.1968, -3.85249], [-77.19882, -3.86129], [-77.20082, -3.87009], [-77.20282, -3.87891], [-77.20482, -3.88771], [-77.20684, -3.8965], [-77.20887, -3.90528], [-77.21088, -3.91409], [-77.21289, -3.92291], [-77.21489, -3.93172], [-77.21691, -3.94053], [-77.21891, -3.94933], [-77.22091, -3.95813], [-77.22291, -3.96694], [-77.2249, -3.97576], [-77.2279, -3.98332], [-77.23471, -3.98917], [-77.24078, -3.99549], [-77.24261, -4.00433], [-77.24445, -4.01315], [-77.2463, -4.02197], [-77.24811, -4.03079], [-77.24994, -4.03961], [-77.25176, -4.04843], [-77.25358, -4.05725], [-77.25541, -4.06608], [-77.25724, -4.07489], [-77.25905, -4.08371], [-77.2609, -4.09255], [-77.2627, -4.1014], [-77.2645, -4.11023], [-77.26626, -4.11907], [-77.26824, -4.12787], [-77.27175, -4.13617], [-77.27526, -4.14445], [-77.27875, -4.15276], [-77.28222, -4.16109], [-77.28571, -4.16941], [-77.28917, -4.17776], [-77.29266, -4.18608], [-77.29608, -4.19442], [-77.2995, -4.20278], [-77.30289, -4.21114], [-77.3063, -4.21951], [-77.30972, -4.22788], [-77.31576, -4.23449], [-77.32215, -4.24086], [-77.32783, -4.24786], [-77.33338, -4.25498], [-77.33892, -4.26211], [-77.34446, -4.26924], [-77.35, -4.27637], [-77.35553, -4.28348], [-77.36104, -4.2906], [-77.36657, -4.29772], [-77.37211, -4.30485], [-77.37765, -4.31198], [-77.38318, -4.31911], [-77.38872, -4.32625], [-77.39426, -4.33338], [-77.39979, -4.34051], [-77.40532, -4.34765], [-77.41085, -4.35476], [-77.41636, -4.3619], [-77.4219, -4.36902], [-77.42743, -4.37615], [-77.43297, -4.38328], [-77.43867, -4.39019], [-77.44619, -4.39508], [-77.45345, -4.40021], [-77.46092, -4.40527], [-77.46839, -4.41032], [-77.47584, -4.41539], [-77.48331, -4.42043], [-77.49078, -4.42549], [-77.49824, -4.43055], [-77.49871, -4.43936], [-77.49859, -4.44839], [-77.49855, -4.45744], [-77.49846, -4.46648], [-77.49838, -4.47552], [-77.4983, -4.48456], [-77.49823, -4.4936], [-77.49815, -4.50264], [-77.49805, -4.51168], [-77.49796, -4.52072], [-77.49788, -4.52976], [-77.49779, -4.5388], [-77.49768, -4.54784], [-77.4976, -4.55686], [-77.49749, -4.56589], [-77.49739, -4.57492], [-77.49726, -4.58395], [-77.49715, -4.59298], [-77.49703, -4.60201], [-77.49595, -4.61087], [-77.4956, -4.61971], [-77.49709, -4.62853], [-77.49853, -4.63733], [-77.5, -4.64623], [-77.50458, -4.6494]]}, "properties": {"ramal": "ORN", "tramo": "Estación Andoas - Estación N° 5", "km_inicio": -0.0, "km_fin": 251.6, "progresivas": 251}}]}