{"type": "FeatureCollection", "metadata": {"titulo": "Pasivos ambientales del subsector hidrocarburos — Amazonía", "fuente": "MINEM — Dirección General de Asuntos Ambientales de Hidrocarburos (DGAAH), inventario 2015-2019.", "estado": "verificado", "actualizado": "2026-09-01"}, "features": [{"type": "Feature", "geometry": {"type": "Point", "coordinates": [-74.357865, -5.837228]}, "properties": {"id": "2077.0", "cod_ficha": "F03329", "descripcion": "Pozo mal abandonado", "lote": "Ex Lote 14", "departamento": "Loreto", "provincia": "Requena", "distrito": "Emilio San Martin", "riesgo_salud": "BAJO", "riesgo_seguridad": "MEDIO", "riesgo_ambiente": "BAJO", "oficio_oefa": "017-2016-OEFA/DE"}}, {"type": "Feature", "geometry": {"type": "Point", "coordinates": [-74.279813, -5.342865]}, "properties": {"id": "2309.0", "cod_ficha": "F03636", "descripcion": "Pozo mal abandonado", "lote": "95", "departamento": "Loreto", "provincia": "Requena", "distrito": "Puinahua", "riesgo_salud": "BAJO", "riesgo_seguridad": "BAJO", "riesgo_ambiente": "BAJO", "oficio_oefa": "017-2016-OEFA/DE"}}, {"type": "Feature", "geometry": {"type": "Point", "coordinates": [-76.326953, -2.98385]}, "properties": {"id": "2558.0", "cod_ficha": "F03970", "descripcion": "Instalaciones mal abandonadas, restos o depósitos de residuos.", "lote": "Locación Tucunarú 1X y alrededores", "departamento": "Loreto", "provincia": "Loreto", "distrito": "Trompeteros", "riesgo_salud": "BAJO", "riesgo_seguridad": "BAJO", "riesgo_ambiente": "BAJO", "oficio_oefa": "017-2016-OEFA/DE"}}, {"type": "Feature", "geometry": {"type": "Point", "coordinates": [-75.179117, -7.110752]}, "properties": {"id": "2382.0", "cod_ficha": "F02500", "descripcion": "Suelos contaminados con efluente o derrame, restos o depósitos de residuos.", "lote": "100", "departamento": "Loreto", "provincia": "Ucayali", "distrito": "Pampa Hermosa", "riesgo_salud": "BAJO", "riesgo_seguridad": "BAJO", "riesgo_ambiente": "BAJO", "oficio_oefa": "070-2016-OEFA/DE"}}, {"type": "Feature", "geometry": {"type": "Point", "coordinates": [-74.945294, -4.709272]}, "properties": {"id": "1171.0", "cod_ficha": "F01668", "descripcion": "Pozo mal abandonado", "lote": "65.0", "departamento": "Loreto", "provincia": "Loreto", "distrito": "Urarinas", "riesgo_salud": "BAJO", "riesgo_seguridad": "BAJO", "riesgo_ambiente": "BAJO", "oficio_oefa": "081-2015-OEFA/DE"}}, {"type": "Feature", "geometry": {"type": "Point", "coordinates": [-75.235439, -4.753924]}, "properties": {"id": "1506.0", "cod_ficha": "F02188", "descripcion": "Pozo mal abandonado, instalaciones mal abandonadas.", "lote": "7", "departamento": "Loreto", "provincia": "Loreto", "distrito": "Urarinas", "riesgo_salud": "BAJO", "riesgo_seguridad": "BAJO", "riesgo_ambiente": "BAJO", "oficio_oefa": "103-2016-OEFA/DE"}}, {"type": "Feature", "geometry": {"type": "Point", "coordinates": [-74.08643, -4.467166]}, "properties": {"id": "1265.0", "cod_ficha": "F01861", "descripcion": "Pozo mal abandonado con afloramiento de líquidos, presencia de emisiones gaseosas fugitivas y suelo contaminado con bario", "lote": "Sin Lote", "departamento": "Loreto", "provincia": "Loreto", "distrito": "Nauta", "riesgo_salud": "BAJO", "riesgo_seguridad": "BAJO", "riesgo_ambiente": "BAJO", "oficio_oefa": "124-2016-OEFA/DE"}}, {"type": "Feature", "geometry": {"type": "Point", "coordinates": [-73.475785, -9.323314]}, "properties": {"id": "1258.0", "cod_ficha": "F01840", "descripcion": "Pozo mal abandonado", "lote": "126", "departamento": "Ucayali", "provincia": "Coronel Portillo", "distrito": "Masisea", "riesgo_salud": "BAJO", "riesgo_seguridad": "BAJO", "riesgo_ambiente": "BAJO", "oficio_oefa": "124-2016-OEFA/DE"}}, {"type": "Feature", "geometry": {"type": "Point", "coordinates": [-74.15562, -9.2683]}, "properties": {"id": "1290.0", "cod_ficha": "F01892", "descripcion": "Pozo mal abandonado, restos o depósitos de residuos.", "lote": "114.0", "departamento": "Ucayali", "provincia": "Coronel Portillo", "distrito": "Iparia", "riesgo_salud": "ALTO", "riesgo_seguridad": "ALTO", "riesgo_ambiente": "ALTO", "oficio_oefa": "124-2016-OEFA/DE"}}, {"type": "Feature", "geometry": {"type": "Point", "coordinates": [-74.250336, -9.610651]}, "properties": {"id": "1291.0", "cod_ficha": "F01893", "descripcion": "Pozo mal abandonado", "lote": "114", "departamento": "Ucayali", "provincia": "Coronel Portillo", "distrito": "Iparia", "riesgo_salud": "BAJO", "riesgo_seguridad": "BAJO", "riesgo_ambiente": "BAJO", "oficio_oefa": "124-2016-OEFA/DE"}}, {"type": "Feature", "geometry": {"type": "Point", "coordinates": [-77.237101, -3.936252]}, "properties": {"id": "1.0", "cod_ficha": "F00001", "descripcion": "Restos o depósitos de residuos.", "lote": "Sin Lote", "departamento": "Loreto", "provincia": "Dátem del Marañón", "distrito": "Morona", "riesgo_salud": "BAJO", "riesgo_seguridad": "BAJO", "riesgo_ambiente": "BAJO", "oficio_oefa": "156-2013-OEFA/DE"}}, {"type": "Feature", "geometry": {"type": "Point", "coordinates": [-75.178981, -7.110345]}, "properties": {"id": "1292.0", "cod_ficha": "F01894", "descripcion": "Pozo mal abandonado", "lote": "100", "departamento": "Loreto", "provincia": "Ucayali", "distrito": "Pampa Hermosa", "riesgo_salud": "BAJO", "riesgo_seguridad": "BAJO", "riesgo_ambiente": "BAJO", "oficio_oefa": "161-2015-OEFA/DE"}}, {"type": "Feature", "geometry": {"type": "Point", "coordinates": [-75.187584, -7.108677]}, "properties": {"id": "1293.0", "cod_ficha": "F01895", "descripcion": "Pozo mal abandonado", "lote": "100", "departamento": "Loreto", "provincia": "Ucayali", "distrito": "Pampa Hermosa", "riesgo_salud": "BAJO", "riesgo_seguridad": "BAJO", "riesgo_ambiente": "BAJO", "oficio_oefa": "161-2015-OEFA/DE"}}, {"type": "Feature", "geometry": {"type": "Point", "coordinates": [-69.730772, -12.112526]}, "properties": {"id": "1013.0", "cod_ficha": "F01469", "descripcion": "Pozo mal abandonado", "lote": "157", "departamento": "Madre de Dios", "provincia": "Tambopata", "distrito": "Tambopata", "riesgo_salud": "BAJO", "riesgo_seguridad": "BAJO", "riesgo_ambiente": "BAJO", "oficio_oefa": "161-2015-OEFA/DE"}}, {"type": "Feature", "geometry": {"type": "Point", "coordinates": [-74.882113, -8.550099]}, "properties": {"id": "1295.0", "cod_ficha": "F01897", "descripcion": "Pozo mal abandonado", "lote": "163.0", "departamento": "Ucayali", "provincia": "Coronel Portillo", "distrito": "Campoverde", "riesgo_salud": "BAJO", "riesgo_seguridad": "BAJO", "riesgo_ambiente": "BAJO", "oficio_oefa": "161-2015-OEFA/DE"}}, {"type": "Feature", "geometry": {"type": "Point", "coordinates": [-77.238034, -3.934902]}, "properties": {"id": "2.0", "cod_ficha": "F00002", "descripcion": "Instalaciones mal abandonadas.", "lote": "Sin Lote", "departamento": "Loreto", "provincia": "Dátem del Marañón", "distrito": "Morona", "riesgo_salud": "BAJO", "riesgo_seguridad": "BAJO", "riesgo_ambiente": "BAJO", "oficio_oefa": "192-2014-OEFA/DE"}}, {"type": "Feature", "geometry": {"type": "Point", "coordinates": [-75.206041, -6.96901]}, "properties": {"id": "1294.0", "cod_ficha": "F01896", "descripcion": "Pozo mal abandonado", "lote": "183", "departamento": "Loreto", "provincia": "Ucayali", "distrito": "Vargas Guerra", "riesgo_salud": "BAJO", "riesgo_seguridad": "BAJO", "riesgo_ambiente": "BAJO", "oficio_oefa": "210-2015-OEFA/DE"}}, {"type": "Feature", "geometry": {"type": "Point", "coordinates": [-73.72193, -9.036114]}, "properties": {"id": "1717.0", "cod_ficha": "F01841", "descripcion": "Instalaciones mal abandonadas, restos o depósitos de residuos.", "lote": "126", "departamento": "Ucayali", "provincia": "Coronel Portillo", "distrito": "Masisea", "riesgo_salud": "BAJO", "riesgo_seguridad": "BAJO", "riesgo_ambiente": "BAJO", "oficio_oefa": "210-2015-OEFA/DE"}}, {"type": "Feature", "geometry": {"type": "Point", "coordinates": [-75.217249, -4.806699]}, "properties": {"id": "1183.0", "cod_ficha": "F01680", "descripcion": "Pozo mal abandonado", "lote": "7", "departamento": "Loreto", "provincia": "Loreto", "distrito": "Urarinas", "riesgo_salud": "BAJO", "riesgo_seguridad": "BAJO", "riesgo_ambiente": "BAJO", "oficio_oefa": "246-2015-OEFA/DE"}}, {"type": "Feature", "geometry": {"type": "Point", "coordinates": [-74.786055, -4.526236]}, "properties": {"id": "1504.0", "cod_ficha": "F02187", "descripcion": "Pozo mal abandonado", "lote": "Sin Lote", "departamento": "Loreto", "provincia": "Loreto", "distrito": "Urarinas", "riesgo_salud": "BAJO", "riesgo_seguridad": "BAJO", "riesgo_ambiente": "BAJO", "oficio_oefa": "246-2015-OEFA/DE"}}, {"type": "Feature", "geometry": {"type": "Point", "coordinates": [-77.95159, -4.727506]}, "properties": {"id": "1014.0", "cod_ficha": "F01471", "descripcion": "Pozo mal abandonado, restos o depósitos de residuos.", "lote": "116.0", "departamento": "Amazonas", "provincia": "Condorcanqui", "distrito": "Nieva", "riesgo_salud": "MEDIO", "riesgo_seguridad": "MEDIO", "riesgo_ambiente": "MEDIO", "oficio_oefa": "72-2015-OEFA/DE"}}, {"type": "Feature", "geometry": {"type": "Point", "coordinates": [-77.931452, -4.380495]}, "properties": {"id": "1015.0", "cod_ficha": "F01473", "descripcion": "Pozo mal abandonado, la instalación de hidrocarburos, restos y depósitos de residuos vinculados al pozo", "lote": "116.0", "departamento": "Amazonas", "provincia": "Condorcanqui", "distrito": "Rio Santiago", "riesgo_salud": "BAJO", "riesgo_seguridad": "BAJO", "riesgo_ambiente": "BAJO", "oficio_oefa": "Oficio N° 317-2019-OEFA-DEAM"}}]}