{"type": "FeatureCollection", "metadata": {"titulo": "Sitios impactados con plan de rehabilitación (MINEM)", "fuente": "MINEM — DGAAH, consolidado de planes de rehabilitación (cuencas Pastaza, Corrientes, Tigre y Marañón).", "estado": "verificado", "actualizado": "2026-09-01"}, "features": [{"type": "Feature", "geometry": {"type": "Point", "coordinates": [-76.441686, -2.786758]}, "properties": {"numero": "1.0", "sitio": "Sitio 22", "cuenca": "Pastaza", "area_ha": 1.55, "referencia": "Capahuari Sur / Cocha Piri-Piri", "expediente": "Expediente N.° 2971509", "codigo_oefa": "SO100", "costo_total_soles": 17244020.0}}, {"type": "Feature", "geometry": {"type": "Point", "coordinates": [-76.413395, -2.784025]}, "properties": {"numero": "2.0", "sitio": "Ushpayacu", "cuenca": "Pastaza", "area_ha": 54.53, "referencia": "Capahuari Sur", "expediente": "Expediente N.° 2971509", "codigo_oefa": "SO101", "costo_total_soles": 73559730.25}}, {"type": "Feature", "geometry": {"type": "Point", "coordinates": [-76.506007, -2.65894]}, "properties": {"numero": "3.0", "sitio": "Sitio 2", "cuenca": "Pastaza", "area_ha": 1.61, "referencia": "Capahuari Norte", "expediente": "Expediente N.° 2971509", "codigo_oefa": "SO102", "costo_total_soles": 6612284.0}}, {"type": "Feature", "geometry": {"type": "Point", "coordinates": [-76.430667, -2.786419]}, "properties": {"numero": "4.0", "sitio": "Botadero Km. 7", "cuenca": "Pastaza", "area_ha": 1.97, "referencia": "Comunidad Nativa Nuevo Andoas", "expediente": "Expediente N.° 2971509", "codigo_oefa": "SO103", "costo_total_soles": 19291282.0}}, {"type": "Feature", "geometry": {"type": "Point", "coordinates": [-76.448238, -2.775355]}, "properties": {"numero": "5.0", "sitio": "Botadero Km. 2", "cuenca": "Pastaza", "area_ha": 3.67, "referencia": "Caparahui Norte", "expediente": "Expediente N.° 2971509", "codigo_oefa": "SO104", "costo_total_soles": 19523487.0}}, {"type": "Feature", "geometry": {"type": "Point", "coordinates": [-76.44243, -2.784894]}, "properties": {"numero": "6.0", "sitio": "Botadero CS-32", "cuenca": "Pastaza", "area_ha": 1.95, "referencia": "Caparahui Norte", "expediente": "Expediente N.° 2971509", "codigo_oefa": "SO105", "costo_total_soles": 6612284.0}}, {"type": "Feature", "geometry": {"type": "Point", "coordinates": [-76.456348, -2.76593]}, "properties": {"numero": "7.0", "sitio": "Botadero Km. 4", "cuenca": "Pastaza", "area_ha": 2.4, "referencia": "Caparahui Norte", "expediente": "Expediente N.° 2971509", "codigo_oefa": "SO106", "costo_total_soles": 11256161.0}}, {"type": "Feature", "geometry": {"type": "Point", "coordinates": [-76.226939, -2.622962]}, "properties": {"numero": "8.0", "sitio": "Sitio 1", "cuenca": "Corrientes", "area_ha": null, "referencia": "Huayuri", "expediente": "Expediente N.° 2961427", "codigo_oefa": "SO107", "costo_total_soles": 3062420.87}}, {"type": "Feature", "geometry": {"type": "Point", "coordinates": [-76.226453, -2.594887]}, "properties": {"numero": "9.0", "sitio": "Sitio 2", "cuenca": "Corrientes", "area_ha": null, "referencia": "Huayuri", "expediente": "Expediente N.° 2961427", "codigo_oefa": "SO108", "costo_total_soles": 19876501.0}}, {"type": "Feature", "geometry": {"type": "Point", "coordinates": [-76.227087, -2.617209]}, "properties": {"numero": "10.0", "sitio": "Sitio 3", "cuenca": "Corrientes", "area_ha": null, "referencia": "Huayuri", "expediente": "Expediente N.° 2961427", "codigo_oefa": "SO109", "costo_total_soles": 2184858.0}}, {"type": "Feature", "geometry": {"type": "Point", "coordinates": [-76.151575, -2.640039]}, "properties": {"numero": "11.0", "sitio": "Sitio 5", "cuenca": "Corrientes", "area_ha": null, "referencia": "Huayuri", "expediente": "Expediente N.° 2961427", "codigo_oefa": "SO110", "costo_total_soles": 1144246.0}}, {"type": "Feature", "geometry": {"type": "Point", "coordinates": [-76.139164, -2.499133]}, "properties": {"numero": "12.0", "sitio": "Sitio 16", "cuenca": "Corrientes", "area_ha": null, "referencia": "Shiviyacu", "expediente": "Expediente N.° 2961427", "codigo_oefa": "SO111", "costo_total_soles": 1489367.0}}, {"type": "Feature", "geometry": {"type": "Point", "coordinates": [-76.137899, -2.492622]}, "properties": {"numero": "13.0", "sitio": "Sitio 35", "cuenca": "Corrientes", "area_ha": null, "referencia": "Shiviyacu", "expediente": "Expediente N.° 2961427", "codigo_oefa": "SO112", "costo_total_soles": 105642069.0}}, {"type": "Feature", "geometry": {"type": "Point", "coordinates": [-76.212201, -2.744334]}, "properties": {"numero": "14.0", "sitio": "Sitio 13", "cuenca": "Corrientes", "area_ha": null, "referencia": "Dorisa", "expediente": "Expediente N.° 2961427", "codigo_oefa": "SO113", "costo_total_soles": 11593546.0}}, {"type": "Feature", "geometry": {"type": "Point", "coordinates": [-76.197407, -2.747271]}, "properties": {"numero": "15.0", "sitio": "Sitio 14", "cuenca": "Corrientes", "area_ha": null, "referencia": "Dorisa", "expediente": "Expediente N.° 2961427", "codigo_oefa": "SO114", "costo_total_soles": 65513741.0}}, {"type": "Feature", "geometry": {"type": "Point", "coordinates": [-76.204583, -2.753885]}, "properties": {"numero": "16.0", "sitio": "Sitio 11", "cuenca": "Corrientes", "area_ha": null, "referencia": "Dorisa", "expediente": "Expediente N.° 2961427", "codigo_oefa": "SO115", "costo_total_soles": 131580600.0}}, {"type": "Feature", "geometry": {"type": "Point", "coordinates": [-76.193473, -2.771217]}, "properties": {"numero": "17.0", "sitio": "Sitio 12", "cuenca": "Corrientes", "area_ha": null, "referencia": "Dorisa", "expediente": "Expediente N.° 2961427", "codigo_oefa": "SO116", "costo_total_soles": 2244833.0}}, {"type": "Feature", "geometry": {"type": "Point", "coordinates": [-76.037665, -2.721985]}, "properties": {"numero": "18.0", "sitio": "Sitio 17", "cuenca": "Corrientes", "area_ha": null, "referencia": "Jibarito", "expediente": "Expediente N.° 2961427", "codigo_oefa": "SO117", "costo_total_soles": 1286708.0}}, {"type": "Feature", "geometry": {"type": "Point", "coordinates": [-76.12911, -2.53128]}, "properties": {"numero": "19.0", "sitio": "Botadero Comunidad Olaya", "cuenca": "Corrientes", "area_ha": null, "referencia": "Cercano a la Comunidad José Olaya - Shiviyacu", "expediente": "Expediente N.° 2961427", "codigo_oefa": "SO118", "costo_total_soles": null}}, {"type": "Feature", "geometry": {"type": "Point", "coordinates": [-76.029673, -2.718156]}, "properties": {"numero": "20.0", "sitio": "Botadero Jibarito", "cuenca": "Corrientes", "area_ha": null, "referencia": "Cercano a Bahía de Jibaro", "expediente": "Expediente N.° 2961427", "codigo_oefa": "SO119", "costo_total_soles": 1000990.67}}, {"type": "Feature", "geometry": {"type": "Point", "coordinates": [-75.859042, -2.329796]}, "properties": {"numero": "21.0", "sitio": "Sitio 15", "cuenca": "Tigre", "area_ha": 1.83, "referencia": "San Jacinto/Pozo San Jacinto", "expediente": "Expediente N.° 2970011", "codigo_oefa": "SO120", "costo_total_soles": 17679768.0}}, {"type": "Feature", "geometry": {"type": "Point", "coordinates": [-75.859878, -2.328457]}, "properties": {"numero": "22.0", "sitio": "Sitio 16", "cuenca": "Tigre", "area_ha": 0.55, "referencia": "San Jacinto/Pozo San Jacinto", "expediente": "Expediente N.° 2970011", "codigo_oefa": "SO121", "costo_total_soles": 12640422.0}}, {"type": "Feature", "geometry": {"type": "Point", "coordinates": [-75.860855, -2.323843]}, "properties": {"numero": "23.0", "sitio": "Sitio 17", "cuenca": "Tigre", "area_ha": 0.9, "referencia": "San Jacinto/Pozo San Jacinto", "expediente": "Expediente N.° 2970011", "codigo_oefa": "SO122", "costo_total_soles": 14006942.57}}, {"type": "Feature", "geometry": {"type": "Point", "coordinates": [-75.858292, -2.322759]}, "properties": {"numero": "24.0", "sitio": "Sitio 18", "cuenca": "Tigre", "area_ha": 1.11, "referencia": "San Jacinto/Pozo San Jacinto", "expediente": "Expediente N.° 2970011", "codigo_oefa": "SO123", "costo_total_soles": 14042470.0}}, {"type": "Feature", "geometry": {"type": "Point", "coordinates": [-75.88955, -2.261579]}, "properties": {"numero": "25.0", "sitio": "Sitio 8", "cuenca": "Tigre", "area_ha": 0.2, "referencia": "San Jacinto/Pozo San Jacinto", "expediente": "Expediente N.° 2970011", "codigo_oefa": "SO124", "costo_total_soles": 5376618.0}}, {"type": "Feature", "geometry": {"type": "Point", "coordinates": [-75.852245, -2.361552]}, "properties": {"numero": "26.0", "sitio": "Sitio 1, 3, 5 y 6", "cuenca": "Tigre", "area_ha": 0.53, "referencia": "San Jacinto/Pozo San Jacinto", "expediente": "Expediente N.° 2970011", "codigo_oefa": "SO125, SO127 y SO128", "costo_total_soles": 27414193.04}}, {"type": "Feature", "geometry": {"type": "Point", "coordinates": [-75.85131, -2.362231]}, "properties": {"numero": "27.0", "sitio": "Sitio 2", "cuenca": "Tigre", "area_ha": 0.2, "referencia": "San Jacinto/Pozo San Jacinto", "expediente": "Expediente N.° 2970011", "codigo_oefa": "SO126", "costo_total_soles": 12371241.0}}, {"type": "Feature", "geometry": {"type": "Point", "coordinates": [-75.776821, -2.478593]}, "properties": {"numero": "29.0", "sitio": "Sitio 27", "cuenca": "Tigre", "area_ha": 9.41, "referencia": "San José de Marsella", "expediente": "Expediente N.° 2970011", "codigo_oefa": "SO129", "costo_total_soles": 31711698.0}}, {"type": "Feature", "geometry": {"type": "Point", "coordinates": [-75.869601, -2.301819]}, "properties": {"numero": "30.0", "sitio": "Botadero 12 de Octubre", "cuenca": "Tigre", "area_ha": 2.39, "referencia": "Cerca a la Comunidad 12 de Octubre", "expediente": "Expediente N.° 2970011", "codigo_oefa": "SO130", "costo_total_soles": 19935369.0}}, {"type": "Feature", "geometry": {"type": "Point", "coordinates": [-75.636413, -2.468319]}, "properties": {"numero": "31.0", "sitio": "Botadero San Juan de Barta", "cuenca": "Tigre", "area_ha": 0.3, "referencia": "Comunidad Nativa San Juan de Bartra", "expediente": "Expediente N.° 2970011", "codigo_oefa": "SO131", "costo_total_soles": 13023537.0}}]}