{"type": "FeatureCollection", "metadata": {"titulo": "Depósitos de relaves fiscalizados", "fuente": "OEFA — PIFA, RIESGOS/SERV_RIESGO_HIDROM_RELAVES_WMS", "estado": "verificado", "actualizado": "2026-08-05"}, "features": [{"type": "Feature", "geometry": {"type": "Point", "coordinates": [-77.03098, -9.55914]}, "properties": {"NOM_COMP": "Depósito de relaves Antamina (preliminar - referencia)", "TIPO_COMP": "Depósito", "estado_dr": "Operación", "unidad": "Antamina", "administrado": "COMPANIA MINERA ANTAMINA S.A", "subsector": "Minería", "area_m2": 6468163.35980479}}, {"type": "Feature", "geometry": {"type": "Point", "coordinates": [-70.6785, -15.35062]}, "properties": {"NOM_COMP": "Depósito de relaves Pomasi", "TIPO_COMP": "Depósito", "estado_dr": "Operación", "unidad": "Pomasi", "administrado": "CONSORCIO DE INGENIEROS EJECUTORES MINEROS S.A.", "subsector": "Minería", "area_m2": 10199.82603377}}, {"type": "Feature", "geometry": {"type": "Point", "coordinates": [-76.13071, -11.65624]}, "properties": {"NOM_COMP": "Depósito de relaves Toromocho (preliminar - referencia)", "TIPO_COMP": "Depósito", "estado_dr": "Operación", "unidad": "Toromocho", "administrado": "MINERA CHINALCO PERÚ S.A.", "subsector": "Minería", "area_m2": 4192563.44702017}}, {"type": "Feature", "geometry": {"type": "Point", "coordinates": [-76.13471, -11.60034]}, "properties": {"NOM_COMP": "Depósito de relaves Toromocho (preliminar - referencia)", "TIPO_COMP": "Depósito", "estado_dr": "Operación", "unidad": "Toromocho", "administrado": "MINERA CHINALCO PERÚ S.A.", "subsector": "Minería", "area_m2": 403472.69735501}}, {"type": "Feature", "geometry": {"type": "Point", "coordinates": [-70.70927, -17.20532]}, "properties": {"NOM_COMP": "Depósito de relaves Quellaveco (preliminar - referencia)", "TIPO_COMP": "Depósito", "estado_dr": "Operación", "unidad": "Quellaveco", "administrado": "ANGLO AMERICAN QUELLAVECO S.A.", "subsector": "Minería", "area_m2": 4584.91124906}}, {"type": "Feature", "geometry": {"type": "Point", "coordinates": [-70.69004, -17.19626]}, "properties": {"NOM_COMP": "Depósito de relaves Quellaveco (preliminar - referencia)", "TIPO_COMP": "Depósito", "estado_dr": "Operación", "unidad": "Quellaveco", "administrado": "ANGLO AMERICAN QUELLAVECO S.A.", "subsector": "Minería", "area_m2": 2478966.51805966}}, {"type": "Feature", "geometry": {"type": "Point", "coordinates": [-71.79654, -14.50265]}, "properties": {"NOM_COMP": "Depósito de relaves TMF", "TIPO_COMP": "Depósito", "estado_dr": "Operación", "unidad": "Constancia", "administrado": "HUDBAY PERU S.A.C.", "subsector": null, "area_m2": 3214881.43720228}}, {"type": "Feature", "geometry": {"type": "Point", "coordinates": [-70.60022, -15.44707]}, "properties": {"NOM_COMP": "Depósito de relaves Huaybillo", "TIPO_COMP": "Depósito", "estado_dr": "Operación", "unidad": "El Cofre", "administrado": "CONSORCIO DE INGENIEROS EJECUTORES MINEROS S.A.", "subsector": null, "area_m2": 132158.54557708}}, {"type": "Feature", "geometry": {"type": "Point", "coordinates": [-76.213, -10.62101]}, "properties": {"NOM_COMP": "Depósito de relaves El porvenir", "TIPO_COMP": "Depósito", "estado_dr": "Operación", "unidad": "El Porvenir", "administrado": "NEXA RESOURCES EL PORVENIR S.A.C.", "subsector": null, "area_m2": 683689.32287111}}, {"type": "Feature", "geometry": {"type": "Point", "coordinates": [-75.20456, -15.26597]}, "properties": {"NOM_COMP": "Depósito de relaves Pampa Choclon I", "TIPO_COMP": "Depósito", "estado_dr": "Operación", "unidad": "Marcona", "administrado": "MINERA SHOUXIN PERU S.A.", "subsector": null, "area_m2": 324463.62669314}}, {"type": "Feature", "geometry": {"type": "Point", "coordinates": [-75.8403, -11.40281]}, "properties": {"NOM_COMP": "Depósito de relaves", "TIPO_COMP": "Depósito", "estado_dr": "Operación", "unidad": "Fortunita", "administrado": "CIA MINERA LAS CAMELIAS S A", "subsector": null, "area_m2": 42218.21244087}}, {"type": "Feature", "geometry": {"type": "Point", "coordinates": [-74.46653, -15.09068]}, "properties": {"NOM_COMP": "Depósito de relaves N°3", "TIPO_COMP": "Depósito", "estado_dr": "Operación", "unidad": "Planta de Beneficio Hacienda Metalex", "administrado": "MINERA VETA DORADA S.A.C.", "subsector": null, "area_m2": 47667.350037}}, {"type": "Feature", "geometry": {"type": "Point", "coordinates": [-74.46606, -15.09231]}, "properties": {"NOM_COMP": "Depósito de relaves N°2", "TIPO_COMP": "Depósito", "estado_dr": "Operación", "unidad": "Planta de Beneficio Hacienda Metalex", "administrado": "MINERA VETA DORADA S.A.C.", "subsector": null, "area_m2": 25291.94795217}}, {"type": "Feature", "geometry": {"type": "Point", "coordinates": [-74.46501, -15.09279]}, "properties": {"NOM_COMP": "Depósito de relaves N°1", "TIPO_COMP": "Depósito", "estado_dr": "Operación", "unidad": "Planta de Beneficio Hacienda Metalex", "administrado": "MINERA VETA DORADA S.A.C.", "subsector": null, "area_m2": 15026.88556378}}, {"type": "Feature", "geometry": {"type": "Point", "coordinates": [-75.47346, -12.6204]}, "properties": {"NOM_COMP": "Depósito de relaves", "TIPO_COMP": "Depósito", "estado_dr": "Operación", "unidad": "Heraldos Negros", "administrado": "COMPANIA MINERA SAN VALENTIN S.A.", "subsector": null, "area_m2": 105307.15794186}}, {"type": "Feature", "geometry": {"type": "Point", "coordinates": [-73.24015, -14.93554]}, "properties": {"NOM_COMP": "Depósito de relaves Inmaculada", "TIPO_COMP": "Depósito", "estado_dr": "Operación", "unidad": "Inmaculada", "administrado": "COMPANIA MINERA ARES S.A.C.", "subsector": null, "area_m2": 376539.21946147}}, {"type": "Feature", "geometry": {"type": "Point", "coordinates": [-76.72874, -10.78856]}, "properties": {"NOM_COMP": "Depósito de relaves Tinyag Inferior", "TIPO_COMP": "Depósito", "estado_dr": "Operación", "unidad": "Iscaycruz", "administrado": "EMPRESA MINERA LOS QUENUALES S.A.C.", "subsector": null, "area_m2": 125449.85359378}}, {"type": "Feature", "geometry": {"type": "Point", "coordinates": [-76.73127, -10.78383]}, "properties": {"NOM_COMP": "Depósito de relaves 2", "TIPO_COMP": "Depósito", "estado_dr": "Operación", "unidad": "Iscaycruz", "administrado": "EMPRESA MINERA LOS QUENUALES S.A.C.", "subsector": null, "area_m2": 46121.85320178}}, {"type": "Feature", "geometry": {"type": "Point", "coordinates": [-76.72026, -10.79006]}, "properties": {"NOM_COMP": "Depósito de relaves Geniococha", "TIPO_COMP": "Depósito", "estado_dr": "Operación", "unidad": "Iscaycruz", "administrado": "EMPRESA MINERA LOS QUENUALES S.A.C.", "subsector": null, "area_m2": 244458.88895767}}, {"type": "Feature", "geometry": {"type": "Point", "coordinates": [-76.72228, -10.78486]}, "properties": {"NOM_COMP": "Depósito de relaves B", "TIPO_COMP": "Depósito", "estado_dr": "Operación", "unidad": "Iscaycruz", "administrado": "EMPRESA MINERA LOS QUENUALES S.A.C.", "subsector": null, "area_m2": 110136.12162798}}, {"type": "Feature", "geometry": {"type": "Point", "coordinates": [-77.66247, -7.71359]}, "properties": {"NOM_COMP": "Depósito de relaves Marañon", "TIPO_COMP": "Depósito", "estado_dr": "Operación", "unidad": "La Libertad y La Poderosa de Trujillo", "administrado": "CIA MINERA PODEROSA S A", "subsector": null, "area_m2": 11698.28924412}}, {"type": "Feature", "geometry": {"type": "Point", "coordinates": [-77.66268, -7.71401]}, "properties": {"NOM_COMP": "Depósito de relaves N°1", "TIPO_COMP": "Depósito", "estado_dr": "Operación", "unidad": "La Libertad y La Poderosa de Trujillo", "administrado": "CIA MINERA PODEROSA S A", "subsector": null, "area_m2": 17214.34295415}}, {"type": "Feature", "geometry": {"type": "Point", "coordinates": [-77.6627, -7.71558]}, "properties": {"NOM_COMP": "Depósito de relaves N°2", "TIPO_COMP": "Depósito", "estado_dr": "Operación", "unidad": "La Libertad y La Poderosa de Trujillo", "administrado": "CIA MINERA PODEROSA S A", "subsector": null, "area_m2": 33067.66286274}}, {"type": "Feature", "geometry": {"type": "Point", "coordinates": [-77.66208, -7.7163]}, "properties": {"NOM_COMP": "Depósito de relaves N°3", "TIPO_COMP": "Depósito", "estado_dr": "Operación", "unidad": "La Libertad y La Poderosa de Trujillo", "administrado": "CIA MINERA PODEROSA S A", "subsector": null, "area_m2": 14059.67706897}}, {"type": "Feature", "geometry": {"type": "Point", "coordinates": [-76.41996, -11.03486]}, "properties": {"NOM_COMP": "Depósito de relaves PCM-AN-DR-01", "TIPO_COMP": "Depósito", "estado_dr": "Operación", "unidad": "Islay", "administrado": "COMPAÑIA MINERA CHUNGAR S.A.C.", "subsector": null, "area_m2": 344693.66960857}}, {"type": "Feature", "geometry": {"type": "Point", "coordinates": [-77.66131, -7.71708]}, "properties": {"NOM_COMP": "Depósito de relaves N°4", "TIPO_COMP": "Depósito", "estado_dr": "Operación", "unidad": "La Libertad y La Poderosa de Trujillo", "administrado": "CIA MINERA PODEROSA S A", "subsector": null, "area_m2": 4776.65489615}}, {"type": "Feature", "geometry": {"type": "Point", "coordinates": [-77.6617, -7.71717]}, "properties": {"NOM_COMP": "Depósito de relaves N°5", "TIPO_COMP": "Depósito", "estado_dr": "Operación", "unidad": "La Libertad y La Poderosa de Trujillo", "administrado": "CIA MINERA PODEROSA S A", "subsector": null, "area_m2": 7797.13013622}}, {"type": "Feature", "geometry": {"type": "Point", "coordinates": [-77.66127, -7.71828]}, "properties": {"NOM_COMP": "Depósito de relaves N°6", "TIPO_COMP": "Depósito", "estado_dr": "Operación", "unidad": "La Libertad y La Poderosa de Trujillo", "administrado": "CIA MINERA PODEROSA S A", "subsector": null, "area_m2": 6759.08093994}}, {"type": "Feature", "geometry": {"type": "Point", "coordinates": [-77.65152, -7.71996]}, "properties": {"NOM_COMP": "Depósito de relaves Livias", "TIPO_COMP": "Depósito", "estado_dr": "Operación", "unidad": "La Libertad y La Poderosa de Trujillo", "administrado": "CIA MINERA PODEROSA S A", "subsector": null, "area_m2": 115418.02829354}}, {"type": "Feature", "geometry": {"type": "Point", "coordinates": [-75.26583, -12.25382]}, "properties": {"NOM_COMP": "Depósito de relaves 1", "TIPO_COMP": "Depósito", "estado_dr": "Operación", "unidad": "Mercedes", "administrado": "MINERA DOÑA HERMINIA S A", "subsector": null, "area_m2": 31427.48571053}}, {"type": "Feature", "geometry": {"type": "Point", "coordinates": [-75.08702, -15.16227]}, "properties": {"NOM_COMP": "Depósito de relaves", "TIPO_COMP": "Depósito", "estado_dr": "Operación", "unidad": "Mina Justa", "administrado": "MARCOBRE S.A.C.", "subsector": null, "area_m2": 1838031.00425679}}, {"type": "Feature", "geometry": {"type": "Point", "coordinates": [-75.09185, -15.15261]}, "properties": {"NOM_COMP": "Depósito de relaves2", "TIPO_COMP": "Depósito", "estado_dr": "Operación", "unidad": "Mina Justa", "administrado": "MARCOBRE S.A.C.", "subsector": null, "area_m2": 1002329.52072191}}, {"type": "Feature", "geometry": {"type": "Point", "coordinates": [-70.32073, -14.24917]}, "properties": {"NOM_COMP": "Depósito de relaves B3", "TIPO_COMP": "Depósito", "estado_dr": "Operación", "unidad": "Nueva Acumulación Quenamari - San Rafael", "administrado": "MINSUR S. A.", "subsector": null, "area_m2": 268088.99626699}}, {"type": "Feature", "geometry": {"type": "Point", "coordinates": [-70.32067, -14.2407]}, "properties": {"NOM_COMP": "Depósito de relaves B2", "TIPO_COMP": "Depósito", "estado_dr": "Operación", "unidad": "Nueva Acumulación Quenamari - San Rafael", "administrado": "MINSUR S. A.", "subsector": null, "area_m2": 275658.97239381}}, {"type": "Feature", "geometry": {"type": "Point", "coordinates": [-70.32153, -14.23493]}, "properties": {"NOM_COMP": "Depósito de relaves B1", "TIPO_COMP": "Depósito", "estado_dr": "Operación", "unidad": "Nueva Acumulación Quenamari - San Rafael", "administrado": "MINSUR S. A.", "subsector": null, "area_m2": 132918.63847538}}, {"type": "Feature", "geometry": {"type": "Point", "coordinates": [-76.10507, -11.59418]}, "properties": {"NOM_COMP": "Depósito de relaves Huascacocha", "TIPO_COMP": "Depósito", "estado_dr": "Operación", "unidad": "Argentum", "administrado": "COMPAÑIA MINERA ARGENTUM S.A.", "subsector": null, "area_m2": 1610757.80114221}}, {"type": "Feature", "geometry": {"type": "Point", "coordinates": [-76.13423, -11.60268]}, "properties": {"NOM_COMP": "Depósito de relaves 1", "TIPO_COMP": "Depósito", "estado_dr": "Operación", "unidad": "Toromocho", "administrado": "MINERA CHINALCO PERÚ S.A.", "subsector": null, "area_m2": 109055.9983171}}, {"type": "Feature", "geometry": {"type": "Point", "coordinates": [-76.13987, -11.59508]}, "properties": {"NOM_COMP": "Depósito de relaves Puquiococha", "TIPO_COMP": "Depósito", "estado_dr": "Operación", "unidad": "Austria Duvaz", "administrado": "SOCIEDAD MINERA AUSTRIA DUVAZ S.A.C. EN LIQUIDACION", "subsector": null, "area_m2": 81774.91367283}}, {"type": "Feature", "geometry": {"type": "Point", "coordinates": [-76.14017, -11.59333]}, "properties": {"NOM_COMP": "Depósito de relaves 2", "TIPO_COMP": "Depósito", "estado_dr": "Operación", "unidad": "Argentum", "administrado": "COMPAÑIA MINERA ARGENTUM S.A.", "subsector": null, "area_m2": 23095.69763845}}, {"type": "Feature", "geometry": {"type": "Point", "coordinates": [-73.14571, -14.68432]}, "properties": {"NOM_COMP": "Depósito de relaves Pallancata", "TIPO_COMP": "Depósito", "estado_dr": "Operación", "unidad": "Pallancata", "administrado": "COMPANIA MINERA ARES S.A.C.", "subsector": null, "area_m2": 290381.66714013}}, {"type": "Feature", "geometry": {"type": "Point", "coordinates": [-73.14253, -14.68189]}, "properties": {"NOM_COMP": "Depósito de relaves 1", "TIPO_COMP": "Depósito", "estado_dr": "Operación", "unidad": "Pallancata", "administrado": "COMPANIA MINERA ARES S.A.C.", "subsector": null, "area_m2": 18420.70803135}}, {"type": "Feature", "geometry": {"type": "Point", "coordinates": [-77.0772, -9.49449]}, "properties": {"NOM_COMP": "Depósito de relaves 1", "TIPO_COMP": "Depósito", "estado_dr": "Operación", "unidad": "Contonga", "administrado": "EMPRESA MINERA LOS QUENUALES S.A.C.", "subsector": null, "area_m2": 93624.58871264}}, {"type": "Feature", "geometry": {"type": "Point", "coordinates": [-77.08741, -9.50523]}, "properties": {"NOM_COMP": "Depósito de relaves 2", "TIPO_COMP": "Depósito", "estado_dr": "Operación", "unidad": "Contonga", "administrado": "EMPRESA MINERA LOS QUENUALES S.A.C.", "subsector": null, "area_m2": 249903.17508931}}, {"type": "Feature", "geometry": {"type": "Point", "coordinates": [-74.07661, -15.64373]}, "properties": {"NOM_COMP": "Depósito de relaves Chacchuille", "TIPO_COMP": "Depósito", "estado_dr": "Operación", "unidad": "Capitana", "administrado": "COMPAÑIA MINERA CARAVELI S.A.C.", "subsector": null, "area_m2": 6830.46266785}}, {"type": "Feature", "geometry": {"type": "Point", "coordinates": [-74.077, -15.64443]}, "properties": {"NOM_COMP": "Depósito de relaves Chacchuille I", "TIPO_COMP": "Depósito", "estado_dr": "Operación", "unidad": "Caravelí", "administrado": "COMPAÑIA MINERA CARAVELI S.A.C.", "subsector": null, "area_m2": 18987.50334559}}, {"type": "Feature", "geometry": {"type": "Point", "coordinates": [-76.14527, -11.59408]}, "properties": {"NOM_COMP": "Depósito de relaves 3", "TIPO_COMP": "Depósito", "estado_dr": "Operación", "unidad": "Argentum", "administrado": "COMPAÑIA MINERA ARGENTUM S.A.", "subsector": null, "area_m2": 22016.22050945}}, {"type": "Feature", "geometry": {"type": "Point", "coordinates": [-74.07417, -15.64371]}, "properties": {"NOM_COMP": "Depósito de relaves Chacchuille II - Zona 1", "TIPO_COMP": "Depósito", "estado_dr": "Operación", "unidad": "Capitana", "administrado": "COMPAÑIA MINERA CARAVELI S.A.C.", "subsector": null, "area_m2": 39135.36354974}}, {"type": "Feature", "geometry": {"type": "Point", "coordinates": [-74.07471, -15.64229]}, "properties": {"NOM_COMP": "Depósito de relaves Chacchuille II - Zona 2", "TIPO_COMP": "Depósito", "estado_dr": "Operación", "unidad": "Capitana", "administrado": "COMPAÑIA MINERA CARAVELI S.A.C.", "subsector": null, "area_m2": 30969.60129861}}, {"type": "Feature", "geometry": {"type": "Point", "coordinates": [-74.07503, -15.6464]}, "properties": {"NOM_COMP": "Depósito de relaves Chacchuille II - Zona 3", "TIPO_COMP": "Depósito", "estado_dr": "Operación", "unidad": "Capitana", "administrado": "COMPAÑIA MINERA CARAVELI S.A.C.", "subsector": null, "area_m2": 66809.88104829}}, {"type": "Feature", "geometry": {"type": "Point", "coordinates": [-78.55946, -6.99598]}, "properties": {"NOM_COMP": "Depósito de relaves Arenas de Molienda Sur", "TIPO_COMP": "Depósito", "estado_dr": "Operación", "unidad": "Chaupiloma Sur", "administrado": "MINERA YANACOCHA S.R.L.", "subsector": null, "area_m2": 302568.89949749}}, {"type": "Feature", "geometry": {"type": "Point", "coordinates": [-76.17631, -11.67999]}, "properties": {"NOM_COMP": "Depósito de relaves", "TIPO_COMP": "Depósito", "estado_dr": "Operación", "unidad": "Oroya sur", "administrado": "SOBREANDES S.A.C.", "subsector": null, "area_m2": 313049.38600672}}, {"type": "Feature", "geometry": {"type": "Point", "coordinates": [-75.66027, -12.05198]}, "properties": {"NOM_COMP": "Depósito de relaves n° 5 b 4", "TIPO_COMP": "Depósito", "estado_dr": "Operación", "unidad": "UEA Azulcocha", "administrado": "SIERRA POLI S.A.C.", "subsector": null, "area_m2": 3412.82523527}}, {"type": "Feature", "geometry": {"type": "Point", "coordinates": [-75.68233, -12.41035]}, "properties": {"NOM_COMP": "Depósito de relaves San Valentín (preliminar - referencia)", "TIPO_COMP": "Depósito", "estado_dr": "Operación", "unidad": "San Valentín", "administrado": "COMPANIA MINERA SAN VALENTIN S.A.", "subsector": "Minería", "area_m2": 55885.34053807}}, {"type": "Feature", "geometry": {"type": "Point", "coordinates": [-76.19649, -11.60991]}, "properties": {"NOM_COMP": "Depósito de relaves Ticlio (preliminar - referencia)", "TIPO_COMP": "Depósito", "estado_dr": "Operación", "unidad": "Ticlio", "administrado": "VOLCAN COMPANIA MINERA S.A.A.", "subsector": "Minería", "area_m2": 79627.52118537}}, {"type": "Feature", "geometry": {"type": "Point", "coordinates": [-76.13979, -11.59431]}, "properties": {"NOM_COMP": "Depósito de relaves Austria Duvaz (preliminar - referencia)", "TIPO_COMP": "Depósito", "estado_dr": "Operación", "unidad": "Austria Duvaz", "administrado": "SOCIEDAD MINERA AUSTRIA DUVAZ S.A.C. EN LIQUIDACION", "subsector": "Minería", "area_m2": 114459.93683158}}, {"type": "Feature", "geometry": {"type": "Point", "coordinates": [-75.16372, -15.27637]}, "properties": {"NOM_COMP": "Depósito de relaves Marcona (preliminar - referencia)", "TIPO_COMP": "Depósito", "estado_dr": "Operación", "unidad": "Marcona", "administrado": "SHOUGANG HIERRO PERU S.A.A.", "subsector": "Minería", "area_m2": 2923680.43027774}}, {"type": "Feature", "geometry": {"type": "Point", "coordinates": [-75.1958, -15.26047]}, "properties": {"NOM_COMP": "Depósito de relaves Marcona (preliminar - referencia)", "TIPO_COMP": "Depósito", "estado_dr": "Operación", "unidad": "Marcona", "administrado": "SHOUGANG HIERRO PERU S.A.A.", "subsector": "Minería", "area_m2": 1763946.57286734}}, {"type": "Feature", "geometry": {"type": "Point", "coordinates": [-75.17352, -15.25636]}, "properties": {"NOM_COMP": "Depósito de relaves Marcona (preliminar - referencia)", "TIPO_COMP": "Depósito", "estado_dr": "Operación", "unidad": "Marcona", "administrado": "SHOUGANG HIERRO PERU S.A.A.", "subsector": "Minería", "area_m2": 944127.61816405}}, {"type": "Feature", "geometry": {"type": "Point", "coordinates": [-72.30851, -14.98782]}, "properties": {"NOM_COMP": "Depósito de relaves Arcata (preliminar - referencia)", "TIPO_COMP": "Depósito", "estado_dr": "Operación", "unidad": "Arcata", "administrado": "COMPANIA MINERA ARES S.A.C.", "subsector": "Minería", "area_m2": 20850.05006608}}, {"type": "Feature", "geometry": {"type": "Point", "coordinates": [-72.32389, -14.98866]}, "properties": {"NOM_COMP": "Depósito de relaves Arcata (preliminar - referencia)", "TIPO_COMP": "Depósito", "estado_dr": "Operación", "unidad": "Arcata", "administrado": "COMPANIA MINERA ARES S.A.C.", "subsector": "Minería", "area_m2": 272135.99455594}}, {"type": "Feature", "geometry": {"type": "Point", "coordinates": [-76.28394, -10.43759]}, "properties": {"NOM_COMP": "Depósito de relaves Vinchos (preliminar - referencia)", "TIPO_COMP": "Depósito", "estado_dr": "Operación", "unidad": "Vinchos", "administrado": "EMP.EXPLOTADORA DE VINCHOS LTDA S.A.C.", "subsector": "Minería", "area_m2": 8067.21239158}}, {"type": "Feature", "geometry": {"type": "Point", "coordinates": [-76.28341, -10.43389]}, "properties": {"NOM_COMP": "Depósito de relaves Vinchos (preliminar - referencia)", "TIPO_COMP": "Depósito", "estado_dr": "Operación", "unidad": "Vinchos", "administrado": "EMP.EXPLOTADORA DE VINCHOS LTDA S.A.C.", "subsector": "Minería", "area_m2": 10232.00689261}}, {"type": "Feature", "geometry": {"type": "Point", "coordinates": [-76.28618, -10.43118]}, "properties": {"NOM_COMP": "Depósito de relaves Vinchos (preliminar - referencia)", "TIPO_COMP": "Depósito", "estado_dr": "Operación", "unidad": "Vinchos", "administrado": "EMP.EXPLOTADORA DE VINCHOS LTDA S.A.C.", "subsector": "Minería", "area_m2": 8765.63462457}}, {"type": "Feature", "geometry": {"type": "Point", "coordinates": [-76.4152, -11.03688]}, "properties": {"NOM_COMP": "Depósito de relaves Animon (preliminar - referencia)", "TIPO_COMP": "Depósito", "estado_dr": "Operación", "unidad": "Animon", "administrado": "COMPAÑIA MINERA CHUNGAR S.A.C.", "subsector": "Minería", "area_m2": 43636.27284606}}, {"type": "Feature", "geometry": {"type": "Point", "coordinates": [-76.42027, -11.03436]}, "properties": {"NOM_COMP": "Depósito de relaves Animon (preliminar - referencia)", "TIPO_COMP": "Depósito", "estado_dr": "Operación", "unidad": "Animon", "administrado": "COMPAÑIA MINERA CHUNGAR S.A.C.", "subsector": "Minería", "area_m2": 361038.95585549}}, {"type": "Feature", "geometry": {"type": "Point", "coordinates": [-76.42567, -11.02438]}, "properties": {"NOM_COMP": "Depósito de relaves Animon (preliminar - referencia)", "TIPO_COMP": "Depósito", "estado_dr": "Operación", "unidad": "Animon", "administrado": "COMPAÑIA MINERA CHUNGAR S.A.C.", "subsector": "Minería", "area_m2": 239698.60123998}}, {"type": "Feature", "geometry": {"type": "Point", "coordinates": [-80.8492, -6.08198]}, "properties": {"NOM_COMP": "Depósito de relaves Fosfatos Bayovar (preliminar - referencia)", "TIPO_COMP": "Depósito", "estado_dr": "Operación", "unidad": "Fosfatos Bayovar", "administrado": "COMPAÑIA MINERA MISKI MAYO S.R.L.", "subsector": "Minería", "area_m2": 1990838.9634134}}, {"type": "Feature", "geometry": {"type": "Point", "coordinates": [-80.85871, -6.07352]}, "properties": {"NOM_COMP": "Depósito de relaves Fosfatos Bayovar (preliminar - referencia)", "TIPO_COMP": "Depósito", "estado_dr": "Operación", "unidad": "Fosfatos Bayovar", "administrado": "COMPAÑIA MINERA MISKI MAYO S.R.L.", "subsector": "Minería", "area_m2": 977414.24499351}}, {"type": "Feature", "geometry": {"type": "Point", "coordinates": [-80.86741, -6.07291]}, "properties": {"NOM_COMP": "Depósito de relaves Fosfatos Bayovar (preliminar - referencia)", "TIPO_COMP": "Depósito", "estado_dr": "Operación", "unidad": "Fosfatos Bayovar", "administrado": "COMPAÑIA MINERA MISKI MAYO S.R.L.", "subsector": "Minería", "area_m2": 787424.71961722}}, {"type": "Feature", "geometry": {"type": "Point", "coordinates": [-80.84925, -6.07455]}, "properties": {"NOM_COMP": "Depósito de relaves Fosfatos Bayovar (preliminar - referencia)", "TIPO_COMP": "Depósito", "estado_dr": "Operación", "unidad": "Fosfatos Bayovar", "administrado": "COMPAÑIA MINERA MISKI MAYO S.R.L.", "subsector": "Minería", "area_m2": 1349701.76452995}}, {"type": "Feature", "geometry": {"type": "Point", "coordinates": [-80.84212, -6.06951]}, "properties": {"NOM_COMP": "Depósito de relaves Fosfatos Bayovar (preliminar - referencia)", "TIPO_COMP": "Depósito", "estado_dr": "Operación", "unidad": "Fosfatos Bayovar", "administrado": "COMPAÑIA MINERA MISKI MAYO S.R.L.", "subsector": "Minería", "area_m2": 473337.83563813}}, {"type": "Feature", "geometry": {"type": "Point", "coordinates": [-80.83572, -6.05354]}, "properties": {"NOM_COMP": "Depósito de relaves Fosfatos Bayovar (preliminar - referencia)", "TIPO_COMP": "Depósito", "estado_dr": "Operación", "unidad": "Fosfatos Bayovar", "administrado": "COMPAÑIA MINERA MISKI MAYO S.R.L.", "subsector": "Minería", "area_m2": 4607902.56198987}}, {"type": "Feature", "geometry": {"type": "Point", "coordinates": [-80.83391, -6.02283]}, "properties": {"NOM_COMP": "Depósito de relaves Fosfatos Bayovar (preliminar - referencia)", "TIPO_COMP": "Depósito", "estado_dr": "Operación", "unidad": "Fosfatos Bayovar", "administrado": "COMPAÑIA MINERA MISKI MAYO S.R.L.", "subsector": "Minería", "area_m2": 13600.61496802}}, {"type": "Feature", "geometry": {"type": "Point", "coordinates": [-72.17255, -15.03562]}, "properties": {"NOM_COMP": "Depósito de relaves Ares (preliminar - referencia)", "TIPO_COMP": "Depósito", "estado_dr": "Operación", "unidad": "Ares", "administrado": "COMPANIA MINERA ARES S.A.C.", "subsector": "Minería", "area_m2": 324771.30405012}}, {"type": "Feature", "geometry": {"type": "Point", "coordinates": [-73.13949, -14.66086]}, "properties": {"NOM_COMP": "Depósito de relaves Selene (preliminar - referencia)", "TIPO_COMP": "Depósito", "estado_dr": "Operación", "unidad": "Selene", "administrado": "COMPANIA MINERA ARES S.A.C.", "subsector": "Minería", "area_m2": 95031.24617847}}, {"type": "Feature", "geometry": {"type": "Point", "coordinates": [-73.14165, -14.65848]}, "properties": {"NOM_COMP": "Depósito de relaves Selene (preliminar - referencia)", "TIPO_COMP": "Depósito", "estado_dr": "Operación", "unidad": "Selene", "administrado": "COMPANIA MINERA ARES S.A.C.", "subsector": "Minería", "area_m2": 129482.43921751}}, {"type": "Feature", "geometry": {"type": "Point", "coordinates": [-73.06503, -15.91762]}, "properties": {"NOM_COMP": "Depósito de relaves San Juan de Chorunga (preliminar - referencia)", "TIPO_COMP": "Depósito", "estado_dr": "Operación", "unidad": "San Juan de Chorunga", "administrado": "CENTURY MINING PERU S.A.C.", "subsector": "Minería", "area_m2": 10301.1948495}}, {"type": "Feature", "geometry": {"type": "Point", "coordinates": [-73.06631, -15.91711]}, "properties": {"NOM_COMP": "Depósito de relaves San Juan de Chorunga (preliminar - referencia)", "TIPO_COMP": "Depósito", "estado_dr": "Operación", "unidad": "San Juan de Chorunga", "administrado": "CENTURY MINING PERU S.A.C.", "subsector": "Minería", "area_m2": 20368.19350498}}, {"type": "Feature", "geometry": {"type": "Point", "coordinates": [-73.05978, -15.91305]}, "properties": {"NOM_COMP": "Depósito de relaves San Juan de Chorunga (preliminar - referencia)", "TIPO_COMP": "Depósito", "estado_dr": "Operación", "unidad": "San Juan de Chorunga", "administrado": "CENTURY MINING PERU S.A.C.", "subsector": "Minería", "area_m2": 256878.07028722}}, {"type": "Feature", "geometry": {"type": "Point", "coordinates": [-73.05076, -15.90571]}, "properties": {"NOM_COMP": "Depósito de relaves San Juan de Chorunga (preliminar - referencia)", "TIPO_COMP": "Depósito", "estado_dr": "Operación", "unidad": "San Juan de Chorunga", "administrado": "CENTURY MINING PERU S.A.C.", "subsector": "Minería", "area_m2": 3823.45368629}}, {"type": "Feature", "geometry": {"type": "Point", "coordinates": [-71.31813, -14.9006]}, "properties": {"NOM_COMP": "Depósito de relaves Antapaccay - Expansión Tintaya (preliminar - referencia)", "TIPO_COMP": "Depósito", "estado_dr": "Operación", "unidad": "Antapaccay - Expansión Tintaya", "administrado": "COMPAÑIA MINERA ANTAPACCAY S.A.", "subsector": "Minería", "area_m2": 3400025.53957905}}, {"type": "Feature", "geometry": {"type": "Point", "coordinates": [-71.30898, -14.88286]}, "properties": {"NOM_COMP": "Depósito de relaves Antapaccay - Expansión Tintaya (preliminar - referencia)", "TIPO_COMP": "Depósito", "estado_dr": "Operación", "unidad": "Antapaccay - Expansión Tintaya", "administrado": "COMPAÑIA MINERA ANTAPACCAY S.A.", "subsector": "Minería", "area_m2": 20168.66157416}}, {"type": "Feature", "geometry": {"type": "Point", "coordinates": [-71.32193, -14.88237]}, "properties": {"NOM_COMP": "Depósito de relaves Antapaccay - Expansión Tintaya (preliminar - referencia)", "TIPO_COMP": "Depósito", "estado_dr": "Operación", "unidad": "Antapaccay - Expansión Tintaya", "administrado": "COMPAÑIA MINERA ANTAPACCAY S.A.", "subsector": "Minería", "area_m2": 3420.39063514}}, {"type": "Feature", "geometry": {"type": "Point", "coordinates": [-71.31996, -14.88214]}, "properties": {"NOM_COMP": "Depósito de relaves Antapaccay - Expansión Tintaya (preliminar - referencia)", "TIPO_COMP": "Depósito", "estado_dr": "Operación", "unidad": "Antapaccay - Expansión Tintaya", "administrado": "COMPAÑIA MINERA ANTAPACCAY S.A.", "subsector": "Minería", "area_m2": 4706.16904627}}, {"type": "Feature", "geometry": {"type": "Point", "coordinates": [-71.31901, -14.88224]}, "properties": {"NOM_COMP": "Depósito de relaves Antapaccay - Expansión Tintaya (preliminar - referencia)", "TIPO_COMP": "Depósito", "estado_dr": "Operación", "unidad": "Antapaccay - Expansión Tintaya", "administrado": "COMPAÑIA MINERA ANTAPACCAY S.A.", "subsector": "Minería", "area_m2": 6821.92073143}}, {"type": "Feature", "geometry": {"type": "Point", "coordinates": [-71.31739, -14.88266]}, "properties": {"NOM_COMP": "Depósito de relaves Antapaccay - Expansión Tintaya (preliminar - referencia)", "TIPO_COMP": "Depósito", "estado_dr": "Operación", "unidad": "Antapaccay - Expansión Tintaya", "administrado": "COMPAÑIA MINERA ANTAPACCAY S.A.", "subsector": "Minería", "area_m2": 40676.09047164}}, {"type": "Feature", "geometry": {"type": "Point", "coordinates": [-71.31902, -14.88124]}, "properties": {"NOM_COMP": "Depósito de relaves Antapaccay - Expansión Tintaya (preliminar - referencia)", "TIPO_COMP": "Depósito", "estado_dr": "Operación", "unidad": "Antapaccay - Expansión Tintaya", "administrado": "COMPAÑIA MINERA ANTAPACCAY S.A.", "subsector": "Minería", "area_m2": 5833.7026446}}, {"type": "Feature", "geometry": {"type": "Point", "coordinates": [-71.30937, -14.88531]}, "properties": {"NOM_COMP": "Depósito de relaves Antapaccay - Expansión Tintaya (preliminar - referencia)", "TIPO_COMP": "Depósito", "estado_dr": "Operación", "unidad": "Antapaccay - Expansión Tintaya", "administrado": "COMPAÑIA MINERA ANTAPACCAY S.A.", "subsector": "Minería", "area_m2": 70980.02031517}}, {"type": "Feature", "geometry": {"type": "Point", "coordinates": [-71.31877, -14.88085]}, "properties": {"NOM_COMP": "Depósito de relaves Antapaccay - Expansión Tintaya (preliminar - referencia)", "TIPO_COMP": "Depósito", "estado_dr": "Operación", "unidad": "Antapaccay - Expansión Tintaya", "administrado": "COMPAÑIA MINERA ANTAPACCAY S.A.", "subsector": "Minería", "area_m2": 1394.46131166}}, {"type": "Feature", "geometry": {"type": "Point", "coordinates": [-71.30722, -14.86597]}, "properties": {"NOM_COMP": "Depósito de relaves Antapaccay - Expansión Tintaya (preliminar - referencia)", "TIPO_COMP": "Depósito", "estado_dr": "Operación", "unidad": "Antapaccay - Expansión Tintaya", "administrado": "COMPAÑIA MINERA ANTAPACCAY S.A.", "subsector": "Minería", "area_m2": 1319341.67218395}}, {"type": "Feature", "geometry": {"type": "Point", "coordinates": [-77.08656, -9.55349]}, "properties": {"NOM_COMP": "Depósito de relaves Antamina (preliminar - referencia)", "TIPO_COMP": "Depósito", "estado_dr": "Operación", "unidad": "Antamina", "administrado": "COMPANIA MINERA ANTAMINA S.A", "subsector": "Minería", "area_m2": 8596.49006005}}, {"type": "Feature", "geometry": {"type": "Point", "coordinates": [-77.08986, -9.55327]}, "properties": {"NOM_COMP": "Depósito de relaves Antamina (preliminar - referencia)", "TIPO_COMP": "Depósito", "estado_dr": "Operación", "unidad": "Antamina", "administrado": "COMPANIA MINERA ANTAMINA S.A", "subsector": "Minería", "area_m2": 3372.90983217}}, {"type": "Feature", "geometry": {"type": "Point", "coordinates": [-77.08488, -9.55252]}, "properties": {"NOM_COMP": "Depósito de relaves Antamina (preliminar - referencia)", "TIPO_COMP": "Depósito", "estado_dr": "Operación", "unidad": "Antamina", "administrado": "COMPANIA MINERA ANTAMINA S.A", "subsector": "Minería", "area_m2": 8526.66006384}}, {"type": "Feature", "geometry": {"type": "Point", "coordinates": [-77.08349, -9.55133]}, "properties": {"NOM_COMP": "Depósito de relaves Antamina (preliminar - referencia)", "TIPO_COMP": "Depósito", "estado_dr": "Operación", "unidad": "Antamina", "administrado": "COMPANIA MINERA ANTAMINA S.A", "subsector": "Minería", "area_m2": 9618.50566286}}, {"type": "Feature", "geometry": {"type": "Point", "coordinates": [-77.08863, -9.55377]}, "properties": {"NOM_COMP": "Depósito de relaves Antamina (preliminar - referencia)", "TIPO_COMP": "Depósito", "estado_dr": "Operación", "unidad": "Antamina", "administrado": "COMPANIA MINERA ANTAMINA S.A", "subsector": "Minería", "area_m2": 10215.08358029}}, {"type": "Feature", "geometry": {"type": "Point", "coordinates": [-77.07297, -9.54888]}, "properties": {"NOM_COMP": "Depósito de relaves Antamina (preliminar - referencia)", "TIPO_COMP": "Depósito", "estado_dr": "Operación", "unidad": "Antamina", "administrado": "COMPANIA MINERA ANTAMINA S.A", "subsector": "Minería", "area_m2": 700.09241882}}, {"type": "Feature", "geometry": {"type": "Point", "coordinates": [-77.07405, -9.54885]}, "properties": {"NOM_COMP": "Depósito de relaves Antamina (preliminar - referencia)", "TIPO_COMP": "Depósito", "estado_dr": "Operación", "unidad": "Antamina", "administrado": "COMPANIA MINERA ANTAMINA S.A", "subsector": "Minería", "area_m2": 836.89899092}}, {"type": "Feature", "geometry": {"type": "Point", "coordinates": [-77.07522, -9.54828]}, "properties": {"NOM_COMP": "Depósito de relaves Antamina (preliminar - referencia)", "TIPO_COMP": "Depósito", "estado_dr": "Operación", "unidad": "Antamina", "administrado": "COMPANIA MINERA ANTAMINA S.A", "subsector": "Minería", "area_m2": 8528.77735969}}, {"type": "Feature", "geometry": {"type": "Point", "coordinates": [-77.07006, -9.54587]}, "properties": {"NOM_COMP": "Depósito de relaves Antamina (preliminar - referencia)", "TIPO_COMP": "Depósito", "estado_dr": "Operación", "unidad": "Antamina", "administrado": "COMPANIA MINERA ANTAMINA S.A", "subsector": "Minería", "area_m2": 6885.34231074}}, {"type": "Feature", "geometry": {"type": "Point", "coordinates": [-76.23212, -11.59579]}, "properties": {"NOM_COMP": "Depósito de relave Chinchán", "TIPO_COMP": "Depósito", "estado_dr": "Operación", "unidad": "Casapalca", "administrado": "EMPRESA MINERA LOS QUENUALES S.A.", "subsector": "Minería", "area_m2": 409040.39200301}}, {"type": "Feature", "geometry": {"type": "Point", "coordinates": [-75.67163, -12.0592]}, "properties": {"NOM_COMP": "Depósito de relave nº 1 (PAM)", "TIPO_COMP": "Depósito", "estado_dr": "Pasivo Ambiental Minero", "unidad": "UEA Azulcocha", "administrado": "SIERRA POLI S.A.C.", "subsector": "Minería", "area_m2": 248.62314313}}, {"type": "Feature", "geometry": {"type": "Point", "coordinates": [-77.59136, -7.77182]}, "properties": {"NOM_COMP": "Depósito de relaves Santa María 2", "TIPO_COMP": "Depósito", "estado_dr": "Operación", "unidad": "La Libertad y La Poderosa de Trujillo", "administrado": "CIA MINERA PODEROSA S A", "subsector": "Minería", "area_m2": 34565.64284048}}, {"type": "Feature", "geometry": {"type": "Point", "coordinates": [-71.74911, -15.07152]}, "properties": {"NOM_COMP": "Depósito de relaves", "TIPO_COMP": "Depósito", "estado_dr": "Operación", "unidad": "Suyckutambo", "administrado": "AMG-AUPLATA MINING GROUP PERU S.A.C.", "subsector": "Minería", "area_m2": 26603.8526689}}, {"type": "Feature", "geometry": {"type": "Point", "coordinates": [-74.37512, -12.5882]}, "properties": {"NOM_COMP": "Depósito de relave zona norte (dr-co-04)", "TIPO_COMP": "Depósito", "estado_dr": "Operación", "unidad": "Cobriza", "administrado": "DOE RUN PERU S.R.L. EN LIQUIDACION EN MARCHA", "subsector": "Minería", "area_m2": 58770.5495082}}, {"type": "Feature", "geometry": {"type": "Point", "coordinates": [-76.2379, -11.65135]}, "properties": {"NOM_COMP": "Depósito de relaves Casapalca", "TIPO_COMP": "Depósito", "estado_dr": "Revegetado", "unidad": "Ex Unidad Minera Casapalca", "administrado": "ACTIVOS MINEROS S.A.C.", "subsector": "Minería", "area_m2": 71846.85503752}}, {"type": "Feature", "geometry": {"type": "Point", "coordinates": [-76.00377, -11.75241]}, "properties": {"NOM_COMP": "Depósito de relaves Andaychagua Alto", "TIPO_COMP": "Depósito", "estado_dr": "Operación", "unidad": "Andaychagua", "administrado": "VOLCAN COMPANIA MINERA S.A.A.", "subsector": "Minería", "area_m2": 443184.03173712}}, {"type": "Feature", "geometry": {"type": "Point", "coordinates": [-76.51818, -11.1955]}, "properties": {"NOM_COMP": "Depósito de relaves Santander", "TIPO_COMP": "Depósito", "estado_dr": "Operación", "unidad": "Santander", "administrado": "TREVALI PERU S.A.C.", "subsector": "Minería", "area_m2": 245153.34612719}}, {"type": "Feature", "geometry": {"type": "Point", "coordinates": [-75.19493, -13.20571]}, "properties": {"NOM_COMP": "Deposito de relaves n°2", "TIPO_COMP": "Depósito", "estado_dr": "Operación", "unidad": "Caudalosa Grande y Relíquias", "administrado": "SOCIEDAD MINERA RELIQUIAS S.A.C.", "subsector": "Minería", "area_m2": 208658.45194667}}, {"type": "Feature", "geometry": {"type": "Point", "coordinates": [-75.67113, -12.05812]}, "properties": {"NOM_COMP": "Deposito de relaves n 2", "TIPO_COMP": "Depósito", "estado_dr": "Operación", "unidad": "UEA Azulcocha", "administrado": "SIERRA POLI S.A.C.", "subsector": "Minería", "area_m2": 6191.92419626}}, {"type": "Feature", "geometry": {"type": "Point", "coordinates": [-71.60238, -16.50691]}, "properties": {"NOM_COMP": "Deposito de relaves Enlozada", "TIPO_COMP": "Depósito", "estado_dr": "Operación", "unidad": "Cerro Verde", "administrado": "SOCIEDAD MINERA CERRO VERDE S.A.A.", "subsector": "Minería", "area_m2": 3274716.47735076}}, {"type": "Feature", "geometry": {"type": "Point", "coordinates": [-74.80531, -12.94795]}, "properties": {"NOM_COMP": "Depósitos de relaves 4", "TIPO_COMP": "Depósito", "estado_dr": "Inoperativo", "unidad": "Julcani", "administrado": "COMPAÑIA DE MINAS BUENAVENTURA S.A.A.", "subsector": "Minería", "area_m2": 21283.70614679}}, {"type": "Feature", "geometry": {"type": "Point", "coordinates": [-76.69152, -10.62872]}, "properties": {"NOM_COMP": "Depósito de relave n° 1", "TIPO_COMP": "Depósito", "estado_dr": "Inoperativo", "unidad": "Uchucchacua", "administrado": "COMPAÑIA DE MINAS BUENAVENTURA S.A.A.", "subsector": "Minería", "area_m2": 25027.41390943}}, {"type": "Feature", "geometry": {"type": "Point", "coordinates": [-76.86109, -10.67519]}, "properties": {"NOM_COMP": "Relavera 1A", "TIPO_COMP": "Depósito", "estado_dr": "Operación", "unidad": "Mallay", "administrado": "COMPAÑIA DE MINAS BUENAVENTURA S.A.A.", "subsector": "Minería", "area_m2": 47102.9236061}}, {"type": "Feature", "geometry": {"type": "Point", "coordinates": [-74.79836, -12.92171]}, "properties": {"NOM_COMP": "Deposito de relaves n° 9", "TIPO_COMP": "Depósito", "estado_dr": "Operación", "unidad": "Julcani", "administrado": "COMPAÑIA DE MINAS BUENAVENTURA S.A.A.", "subsector": "Minería", "area_m2": 153397.77271434}}, {"type": "Feature", "geometry": {"type": "Point", "coordinates": [-76.40133, -11.00465]}, "properties": {"NOM_COMP": "Depósito de relaves n° 5", "TIPO_COMP": "Depósito", "estado_dr": "Operación", "unidad": "Huarón", "administrado": "PAN AMERICAN SILVER HUARON S.A.", "subsector": "Minería", "area_m2": 491989.32588527}}, {"type": "Feature", "geometry": {"type": "Point", "coordinates": [-75.66671, -12.05759]}, "properties": {"NOM_COMP": "Depósito de relaves n° 4:", "TIPO_COMP": "Depósito", "estado_dr": "Operación", "unidad": "UEA Azulcocha", "administrado": "SIERRA POLI S.A.C.", "subsector": "Minería", "area_m2": 66618.44353378}}, {"type": "Feature", "geometry": {"type": "Point", "coordinates": [-76.11086, -11.69863]}, "properties": {"NOM_COMP": "Depósito de relaves Rumichaca", "TIPO_COMP": "Depósito", "estado_dr": "Operación", "unidad": "Carahuacra", "administrado": "VOLCAN COMPANIA MINERA S.A.A.", "subsector": "Minería", "area_m2": 606131.40697159}}, {"type": "Feature", "geometry": {"type": "Point", "coordinates": [-76.09269, -11.68453]}, "properties": {"NOM_COMP": "Depósitos de relave dr-ca-01, 02, 03, 04, 05 y 06", "TIPO_COMP": "Depósito", "estado_dr": "Cerrado", "unidad": "Carahuacra", "administrado": "VOLCAN COMPANIA MINERA S.A.A.", "subsector": "Minería", "area_m2": 32645.76190584}}, {"type": "Feature", "geometry": {"type": "Point", "coordinates": [-78.3115, -8.02591]}, "properties": {"NOM_COMP": "Deposito de relaves Santa Catalina", "TIPO_COMP": "Depósito", "estado_dr": "Operación", "unidad": "Quiruvilca", "administrado": "MINISTERIO DE ENERGIA Y MINAS", "subsector": "Minería", "area_m2": 419983.79081508}}, {"type": "Feature", "geometry": {"type": "Point", "coordinates": [-76.20951, -11.66637]}, "properties": {"NOM_COMP": "Depósito de relaves n° 3", "TIPO_COMP": "Depósito", "estado_dr": "Operación", "unidad": "Americana", "administrado": "ALPAYANA S.A.", "subsector": "Minería", "area_m2": 410680.51894073}}, {"type": "Feature", "geometry": {"type": "Point", "coordinates": [-75.66146, -12.05175]}, "properties": {"NOM_COMP": "Depósito de relaves n° 5 b 1", "TIPO_COMP": "Depósito", "estado_dr": "Operación", "unidad": "UEA Azulcocha", "administrado": "SIERRA POLI S.A.C.", "subsector": "Minería", "area_m2": 1373.93301146}}, {"type": "Feature", "geometry": {"type": "Point", "coordinates": [-76.26192, -11.6933]}, "properties": {"NOM_COMP": "Depósito de relaves Bellavista", "TIPO_COMP": "Depósito", "estado_dr": "Revegetado", "unidad": "Ex Unidad Minera Casapalca", "administrado": "ACTIVOS MINEROS S.A.C.", "subsector": "Minería", "area_m2": 46463.6463546}}, {"type": "Feature", "geometry": {"type": "Point", "coordinates": [-74.3716, -12.57882]}, "properties": {"NOM_COMP": "Depósito de relaves Chacapampa", "TIPO_COMP": "Depósito", "estado_dr": "Operación", "unidad": "Cobriza", "administrado": "DOE RUN PERU S.R.L. EN LIQUIDACION EN MARCHA", "subsector": "Minería", "area_m2": 201589.73704991}}, {"type": "Feature", "geometry": {"type": "Point", "coordinates": [-74.77003, -12.94001]}, "properties": {"NOM_COMP": "Depósito de relaves n° 8.", "TIPO_COMP": "Depósito", "estado_dr": "Cerrado", "unidad": "Julcani", "administrado": "COMPAÑIA DE MINAS BUENAVENTURA S.A.A.", "subsector": "Minería", "area_m2": 31145.57865956}}, {"type": "Feature", "geometry": {"type": "Point", "coordinates": [-76.59419, -12.69665]}, "properties": {"NOM_COMP": "Depósito de relaves integrado 1 y 3", "TIPO_COMP": "Depósito", "estado_dr": "Inoperativo", "unidad": "Acumulación Condestable", "administrado": "COMPAñIA MINERA CONDESTABLE S.A.", "subsector": "Minería", "area_m2": 109445.7331161}}, {"type": "Feature", "geometry": {"type": "Point", "coordinates": [-72.10433, -15.34389]}, "properties": {"NOM_COMP": "Depósito de relave n° 4", "TIPO_COMP": "Depósito", "estado_dr": "Operación", "unidad": "Acumulación Ancoyo", "administrado": "COMPAÑIA DE MINAS BUENAVENTURA S.A.A.", "subsector": "Minería", "area_m2": 42610.76888313}}, {"type": "Feature", "geometry": {"type": "Point", "coordinates": [-72.12252, -15.34628]}, "properties": {"NOM_COMP": "Deposito de relaves n° 2", "TIPO_COMP": "Depósito", "estado_dr": "Cerrado", "unidad": "Acumulación Ancoyo", "administrado": "COMPAÑIA DE MINAS BUENAVENTURA S.A.A.", "subsector": "Minería", "area_m2": 4639.47509351}}, {"type": "Feature", "geometry": {"type": "Point", "coordinates": [-77.52861, -9.74953]}, "properties": {"NOM_COMP": "Depósito de relaves n° 2 (dr2)", "TIPO_COMP": "Depósito", "estado_dr": "Operación", "unidad": "Huancapeti", "administrado": "COMPAÑIA MINERA LINCUNA S.A.", "subsector": "Minería", "area_m2": 149841.19845321}}, {"type": "Feature", "geometry": {"type": "Point", "coordinates": [-75.67, -12.05962]}, "properties": {"NOM_COMP": "Depósito de relave nº 2 (PAM)", "TIPO_COMP": "Depósito", "estado_dr": "Pasivo Ambiental Minero", "unidad": "UEA Azulcocha", "administrado": "SIERRA POLI S.A.C.", "subsector": "Minería", "area_m2": 972.94109264}}, {"type": "Feature", "geometry": {"type": "Point", "coordinates": [-74.94321, -13.08975]}, "properties": {"NOM_COMP": "Relavera n° 5", "TIPO_COMP": "Depósito", "estado_dr": "Cerrado", "unidad": "Recuperada", "administrado": "MINES & METALS TRADING (PERU) S.A.C. - MMTP", "subsector": "Minería", "area_m2": 31796.43052288}}, {"type": "Feature", "geometry": {"type": "Point", "coordinates": [-74.80574, -12.94882]}, "properties": {"NOM_COMP": "Deposito de relaves 5", "TIPO_COMP": "Depósito", "estado_dr": "Inoperativo", "unidad": "Julcani", "administrado": "COMPAÑIA DE MINAS BUENAVENTURA S.A.A.", "subsector": "Minería", "area_m2": 6174.8629569}}, {"type": "Feature", "geometry": {"type": "Point", "coordinates": [-74.38703, -12.5747]}, "properties": {"NOM_COMP": "Depósito de relaves dr-co-01 (nv. 28s)", "TIPO_COMP": "Depósito", "estado_dr": "Revegetado", "unidad": "Cobriza", "administrado": "DOE RUN PERU S.R.L. EN LIQUIDACION EN MARCHA", "subsector": "Minería", "area_m2": 4439.97729828}}, {"type": "Feature", "geometry": {"type": "Point", "coordinates": [-76.59468, -12.68717]}, "properties": {"NOM_COMP": "Depósito de relaves n° 4", "TIPO_COMP": "Depósito", "estado_dr": "Inoperativo", "unidad": "Acumulación Condestable", "administrado": "COMPAñIA MINERA CONDESTABLE S.A.", "subsector": "Minería", "area_m2": 312790.14607796}}, {"type": "Feature", "geometry": {"type": "Point", "coordinates": [-76.29773, -10.68632]}, "properties": {"NOM_COMP": "Punto de descarga de relave de la planta de oxid", "TIPO_COMP": "Depósito", "estado_dr": "Operación", "unidad": "Cerro de Pasco", "administrado": "EMPRESA ADMINISTRADORA CERRO S.A.C.", "subsector": "Minería", "area_m2": 1789924.52405652}}, {"type": "Feature", "geometry": {"type": "Point", "coordinates": [-77.02764, -9.87975]}, "properties": {"NOM_COMP": "Depósito de relaves Chuspic (margen derecha)", "TIPO_COMP": "Depósito", "estado_dr": "Operación", "unidad": "Huanzala", "administrado": "CIA MINERA SANTA LUISA S A", "subsector": "Minería", "area_m2": 634205.32996341}}, {"type": "Feature", "geometry": {"type": "Point", "coordinates": [-73.97098, -14.01295]}, "properties": {"NOM_COMP": "Depósito de relaves cr-7", "TIPO_COMP": "Depósito", "estado_dr": "Operación", "unidad": "Catalina Huanca", "administrado": "CATALINA HUANCA SOCIEDAD MINERA S.A.C.", "subsector": "Minería", "area_m2": 13467.07428517}}, {"type": "Feature", "geometry": {"type": "Point", "coordinates": [-76.08987, -11.68075]}, "properties": {"NOM_COMP": "Depósito de relaves n° 6.", "TIPO_COMP": "Depósito", "estado_dr": "Cerrado", "unidad": "Carahuacra", "administrado": "VOLCAN COMPANIA MINERA S.A.A.", "subsector": "Minería", "area_m2": 14725.85321828}}, {"type": "Feature", "geometry": {"type": "Point", "coordinates": [-77.27855, -11.4924]}, "properties": {"NOM_COMP": "Deposito de relave nro. 3", "TIPO_COMP": "Depósito", "estado_dr": "Operación", "unidad": "María Teresa", "administrado": "MINERA COLQUISIRI S.A.", "subsector": "Minería", "area_m2": 95364.93702491}}, {"type": "Feature", "geometry": {"type": "Point", "coordinates": [-76.26182, -11.67793]}, "properties": {"NOM_COMP": "Deposito de relaves Rosaura", "TIPO_COMP": "Depósito", "estado_dr": "Operación", "unidad": "Casapalca 7", "administrado": "EMPRESA MINERA LOS QUENUALES S.A.", "subsector": "Minería", "area_m2": 91645.67378331}}, {"type": "Feature", "geometry": {"type": "Point", "coordinates": [-75.66067, -12.05162]}, "properties": {"NOM_COMP": "Depósito de relaves n° 5 b 4", "TIPO_COMP": "Depósito", "estado_dr": "Operación", "unidad": "UEA Azulcocha", "administrado": "SIERRA POLI S.A.C.", "subsector": "Minería", "area_m2": 1377.32930645}}, {"type": "Feature", "geometry": {"type": "Point", "coordinates": [-76.25617, -11.66263]}, "properties": {"NOM_COMP": "Depósito de relaves Tablachaca", "TIPO_COMP": "Depósito", "estado_dr": "Revegetado", "unidad": "Ex Unidad Minera Casapalca", "administrado": "ACTIVOS MINEROS S.A.C.", "subsector": "Minería", "area_m2": 63717.10015428}}, {"type": "Feature", "geometry": {"type": "Point", "coordinates": [-78.64685, -6.7387]}, "properties": {"NOM_COMP": "Deposito de relaves nro. 3", "TIPO_COMP": "Depósito", "estado_dr": "Operación", "unidad": "Colorada", "administrado": "COMPAÑIA MINERA SAN NICOLAS SOCIEDAD ANONIMA", "subsector": "Minería", "area_m2": 30346.6386712}}, {"type": "Feature", "geometry": {"type": "Point", "coordinates": [-72.33363, -15.28042]}, "properties": {"NOM_COMP": "Depósito de relaves r-4a", "TIPO_COMP": "Depósito", "estado_dr": "Operación", "unidad": "Orcopampa", "administrado": "COMPAÑIA DE MINAS BUENAVENTURA S.A.A.", "subsector": "Minería", "area_m2": 182032.09564423}}, {"type": "Feature", "geometry": {"type": "Point", "coordinates": [-69.38384, -14.58341]}, "properties": {"NOM_COMP": "Depósito de relaves Untuca", "TIPO_COMP": "Depósito", "estado_dr": "Operación", "unidad": "Untuca", "administrado": "CORI PUNO S.A.C.", "subsector": "Minería", "area_m2": 153453.83078749}}, {"type": "Feature", "geometry": {"type": "Point", "coordinates": [-71.58546, -16.59313]}, "properties": {"NOM_COMP": "Depósito de relaves Linga", "TIPO_COMP": "Depósito", "estado_dr": "Operación", "unidad": "Cerro Verde", "administrado": "SOCIEDAD MINERA CERRO VERDE S.A.A.", "subsector": "Minería", "area_m2": 4646129.54385601}}, {"type": "Feature", "geometry": {"type": "Point", "coordinates": [-70.72594, -15.6286]}, "properties": {"NOM_COMP": "Depósito de relaves Tacaza", "TIPO_COMP": "Depósito", "estado_dr": "Operación", "unidad": "Tacaza", "administrado": "CONSORCIO DE INGENIEROS EJECUTORES MINEROS S.A.", "subsector": "Minería", "area_m2": 60334.98857787}}, {"type": "Feature", "geometry": {"type": "Point", "coordinates": [-75.20064, -13.20154]}, "properties": {"NOM_COMP": "Deposito de relaves n°1", "TIPO_COMP": "Depósito", "estado_dr": "Inoperativo", "unidad": "Caudalosa Grande y Relíquias", "administrado": "SOCIEDAD MINERA RELIQUIAS S.A.C.", "subsector": "Minería", "area_m2": 312304.05152957}}, {"type": "Feature", "geometry": {"type": "Point", "coordinates": [-74.80583, -12.94663]}, "properties": {"NOM_COMP": "Depósito de relaves 3", "TIPO_COMP": "Depósito", "estado_dr": "Inoperativo", "unidad": "Julcani", "administrado": "COMPAÑIA DE MINAS BUENAVENTURA S.A.A.", "subsector": "Minería", "area_m2": 10298.6862912}}, {"type": "Feature", "geometry": {"type": "Point", "coordinates": [-75.15121, -13.19643]}, "properties": {"NOM_COMP": "Deposito de relaves n° 2", "TIPO_COMP": "Depósito", "estado_dr": "Operación", "unidad": "San Genaro", "administrado": "CIA MINERA SANTA INES Y MOROCOCHA S A", "subsector": "Minería", "area_m2": 33702.74642202}}, {"type": "Feature", "geometry": {"type": "Point", "coordinates": [-76.69243, -10.64117]}, "properties": {"NOM_COMP": "Relavera n° 3", "TIPO_COMP": "Depósito", "estado_dr": "Operación", "unidad": "Uchucchacua", "administrado": "COMPAÑIA DE MINAS BUENAVENTURA S.A.A.", "subsector": "Minería", "area_m2": 465039.53258154}}, {"type": "Feature", "geometry": {"type": "Point", "coordinates": [-76.73179, -10.44058]}, "properties": {"NOM_COMP": "Relave nieve Ucro - reforestacion (PAMA nro. 5)", "TIPO_COMP": "Depósito", "estado_dr": "Operación", "unidad": "Raura", "administrado": "CIA MINERA RAURA S A", "subsector": "Minería", "area_m2": 122525.77532622}}, {"type": "Feature", "geometry": {"type": "Point", "coordinates": [-77.41869, -8.05575]}, "properties": {"NOM_COMP": "Deposito de relaves de flotacion.", "TIPO_COMP": "Depósito", "estado_dr": "Operación", "unidad": "UEA Retamas", "administrado": "MINERA AURIFERA RETAMAS S.A.", "subsector": "Minería", "area_m2": 141373.3631273}}, {"type": "Feature", "geometry": {"type": "Point", "coordinates": [-76.21587, -10.57186]}, "properties": {"NOM_COMP": "Depósito de relaves Atacocha", "TIPO_COMP": "Depósito", "estado_dr": "Operación", "unidad": "Atacocha", "administrado": "NEXA RESOURCES ATACOCHA S.A.A.", "subsector": "Minería", "area_m2": 250787.44322702}}, {"type": "Feature", "geometry": {"type": "Point", "coordinates": [-75.664, -12.05427]}, "properties": {"NOM_COMP": "Depósito de relaves Azulcocha", "TIPO_COMP": "Depósito", "estado_dr": "Operación", "unidad": "UEA Azulcocha", "administrado": "SIERRA POLI S.A.C.", "subsector": "Minería", "area_m2": 35727.18175875}}, {"type": "Feature", "geometry": {"type": "Point", "coordinates": [-76.29669, -10.79654]}, "properties": {"NOM_COMP": "Depósito de relaves n° 1", "TIPO_COMP": "Depósito", "estado_dr": "Inoperativo", "unidad": "Colquijirca", "administrado": "SOCIEDAD MINERA EL BROCAL S.A.A.", "subsector": "Minería", "area_m2": 23347.80239085}}, {"type": "Feature", "geometry": {"type": "Point", "coordinates": [-71.97666, -15.47507]}, "properties": {"NOM_COMP": "Depósito de relave", "TIPO_COMP": "Depósito", "estado_dr": "En proceso de construcción", "unidad": "Tambomayo", "administrado": "COMPAÑIA DE MINAS BUENAVENTURA S.A.A.", "subsector": "Minería", "area_m2": 161759.07153426}}, {"type": "Feature", "geometry": {"type": "Point", "coordinates": [-74.37526, -12.59297]}, "properties": {"NOM_COMP": "Depósito de relaves Chancadora", "TIPO_COMP": "Depósito", "estado_dr": "Operación", "unidad": "Cobriza", "administrado": "DOE RUN PERU S.R.L. EN LIQUIDACION EN MARCHA", "subsector": "Minería", "area_m2": 44281.45867722}}, {"type": "Feature", "geometry": {"type": "Point", "coordinates": [-73.53411, -15.79717]}, "properties": {"NOM_COMP": "Depósito de relaves de cianuración dr-2", "TIPO_COMP": "Depósito", "estado_dr": "Operación", "unidad": "Calpa", "administrado": "INTIGOLD MINING SOCIEDAD ANONIMA - INTIGOLD MINING S.A.", "subsector": "Minería", "area_m2": 10331.22675117}}, {"type": "Feature", "geometry": {"type": "Point", "coordinates": [-74.37151, -12.59111]}, "properties": {"NOM_COMP": "Depósito de relaves antiguo espesador", "TIPO_COMP": "Depósito", "estado_dr": "Operación", "unidad": "Cobriza", "administrado": "DOE RUN PERU S.R.L. EN LIQUIDACION EN MARCHA", "subsector": "Minería", "area_m2": 25417.73257348}}, {"type": "Feature", "geometry": {"type": "Point", "coordinates": [-76.46096, -11.20829]}, "properties": {"NOM_COMP": "Depósito de relave Alpamarca", "TIPO_COMP": "Depósito", "estado_dr": "Operación", "unidad": "Alpamarca", "administrado": "COMPAÑIA MINERA CHUNGAR S.A.C.", "subsector": "Minería", "area_m2": 219972.77371942}}, {"type": "Feature", "geometry": {"type": "Point", "coordinates": [-74.38606, -12.57124]}, "properties": {"NOM_COMP": "Depósito de relaves dr-co-02 (El Platanal)", "TIPO_COMP": "Depósito", "estado_dr": "Operación", "unidad": "Cobriza", "administrado": "DOE RUN PERU S.R.L. EN LIQUIDACION EN MARCHA", "subsector": "Minería", "area_m2": 25218.81094864}}, {"type": "Feature", "geometry": {"type": "Point", "coordinates": [-76.29258, -10.79933]}, "properties": {"NOM_COMP": "Cabecera del depósito de relaves integrado n° 7", "TIPO_COMP": "Depósito", "estado_dr": "Inoperativo", "unidad": "Colquijirca", "administrado": "SOCIEDAD MINERA EL BROCAL S.A.A.", "subsector": "Minería", "area_m2": 343893.26279435}}, {"type": "Feature", "geometry": {"type": "Point", "coordinates": [-74.9457, -13.09314]}, "properties": {"NOM_COMP": "Relavera n° 3-4", "TIPO_COMP": "Depósito", "estado_dr": "Operación", "unidad": "Recuperada", "administrado": "MINES & METALS TRADING (PERU) S.A.C. - MMTP", "subsector": "Minería", "area_m2": 49979.99463271}}, {"type": "Feature", "geometry": {"type": "Point", "coordinates": [-76.29902, -10.80013]}, "properties": {"NOM_COMP": "Depósito de relaves n° 6", "TIPO_COMP": "Depósito", "estado_dr": "Inoperativo", "unidad": "Colquijirca", "administrado": "SOCIEDAD MINERA EL BROCAL S.A.A.", "subsector": "Minería", "area_m2": 86469.36686424}}, {"type": "Feature", "geometry": {"type": "Point", "coordinates": [-76.29056, -10.77135]}, "properties": {"NOM_COMP": "Depósito de relaves Huachuacaja", "TIPO_COMP": "Depósito", "estado_dr": "Operación", "unidad": "Colquijirca", "administrado": "SOCIEDAD MINERA EL BROCAL S.A.A.", "subsector": "Minería", "area_m2": 2706190.94179405}}, {"type": "Feature", "geometry": {"type": "Point", "coordinates": [-76.69349, -10.63065]}, "properties": {"NOM_COMP": "Depósito de relaves n° 2 (Mesapata)", "TIPO_COMP": "Depósito", "estado_dr": "Operación", "unidad": "Uchucchacua", "administrado": "COMPAÑIA DE MINAS BUENAVENTURA S.A.A.", "subsector": "Minería", "area_m2": 60222.48320616}}, {"type": "Feature", "geometry": {"type": "Point", "coordinates": [-78.3525, -8.00333]}, "properties": {"NOM_COMP": "Depósito de lodos San Felipe", "TIPO_COMP": "Depósito", "estado_dr": "Operación", "unidad": "Quiruvilca", "administrado": "MINISTERIO DE ENERGIA Y MINAS", "subsector": "Minería", "area_m2": 167020.62007931}}, {"type": "Feature", "geometry": {"type": "Point", "coordinates": [-71.97001, -15.47817]}, "properties": {"NOM_COMP": "Depósito de relave filtrado 2 (drf2)", "TIPO_COMP": "Depósito", "estado_dr": "Operación", "unidad": "Tambomayo", "administrado": "COMPAÑIA DE MINAS BUENAVENTURA S.A.A.", "subsector": "Minería", "area_m2": 53868.07381522}}, {"type": "Feature", "geometry": {"type": "Point", "coordinates": [-70.78455, -17.44989]}, "properties": {"NOM_COMP": "Depósito de relave", "TIPO_COMP": "Depósito", "estado_dr": "Operación", "unidad": "Toquepala", "administrado": "SOUTHERN PERU COPPER CORPORATION SUCURSA L DEL PERU", "subsector": "Minería", "area_m2": 17851861.942884}}, {"type": "Feature", "geometry": {"type": "Point", "coordinates": [-77.37467, -8.19777]}, "properties": {"NOM_COMP": "Depósito de relaves \t", "TIPO_COMP": "Depósito", "estado_dr": "Operación", "unidad": "La Estrella", "administrado": "COMPAñIA MINERA CARAVELI S.A.C.", "subsector": "Minería", "area_m2": 24618.95670686}}, {"type": "Feature", "geometry": {"type": "Point", "coordinates": [-74.9891, -13.05489]}, "properties": {"NOM_COMP": "Depósito de relaves Otungocucho", "TIPO_COMP": "Depósito", "estado_dr": "Cerrado", "unidad": "Huachocolpa Uno", "administrado": "COMPAÑIA MINERA KOLPA S.A.", "subsector": "Minería", "area_m2": 3778.0758581}}, {"type": "Feature", "geometry": {"type": "Point", "coordinates": [-75.14887, -13.1953]}, "properties": {"NOM_COMP": "Deposito de relaves n° 1", "TIPO_COMP": "Depósito", "estado_dr": "Operación", "unidad": "San Genaro", "administrado": "CIA MINERA SANTA INES Y MOROCOCHA S A", "subsector": "Minería", "area_m2": 64327.39121426}}, {"type": "Feature", "geometry": {"type": "Point", "coordinates": [-76.59798, -12.69784]}, "properties": {"NOM_COMP": "Depósito de relaves n° 2", "TIPO_COMP": "Depósito", "estado_dr": "Inoperativo", "unidad": "Acumulación Condestable", "administrado": "COMPAñIA MINERA CONDESTABLE S.A.", "subsector": "Minería", "area_m2": 78194.44298758}}, {"type": "Feature", "geometry": {"type": "Point", "coordinates": [-75.99246, -13.09054]}, "properties": {"NOM_COMP": "Depósito de relaves Pahuaypite 2", "TIPO_COMP": "Depósito", "estado_dr": "Operación", "unidad": "Cerro Lindo", "administrado": "NEXA RESOURCES PERU S.A.A.", "subsector": "Minería", "area_m2": 189342.16924854}}, {"type": "Feature", "geometry": {"type": "Point", "coordinates": [-76.28344, -10.69971]}, "properties": {"NOM_COMP": "Deposito de Relaves Quiulacocha", "TIPO_COMP": "Depósito", "estado_dr": "Operación", "unidad": "Pasivos Ambientales Mineros del Depósito de Relaves Quiulacocha", "administrado": "ACTIVOS MINEROS S.A.C.", "subsector": "Minería", "area_m2": 385873.218881}}, {"type": "Feature", "geometry": {"type": "Point", "coordinates": [-78.32983, -7.04208]}, "properties": {"NOM_COMP": "Depósito de relaves", "TIPO_COMP": "Depósito", "estado_dr": "Cerrado", "unidad": "Pasivos Ambientales Mineros del Proyecto Michiquillay", "administrado": "ACTIVOS MINEROS S.A.C.", "subsector": "Minería", "area_m2": 7333.12524248}}, {"type": "Feature", "geometry": {"type": "Point", "coordinates": [-77.49971, -7.96998]}, "properties": {"NOM_COMP": "Depósito de relaves Chilcapampa", "TIPO_COMP": "Depósito", "estado_dr": "Inoperativo", "unidad": "Acumulación Parcoy N° 1", "administrado": "CONSORCIO MINERO HORIZONTE S.A.", "subsector": "Minería", "area_m2": 20073.12748756}}, {"type": "Feature", "geometry": {"type": "Point", "coordinates": [-77.09025, -9.95525]}, "properties": {"NOM_COMP": "Deposito de relaves Pachapaqui", "TIPO_COMP": "Depósito", "estado_dr": "Operación", "unidad": "Pachapaqui", "administrado": "ICM PACHAPAQUI S.A.C.", "subsector": "Minería", "area_m2": 70084.25477728}}, {"type": "Feature", "geometry": {"type": "Point", "coordinates": [-75.99779, -11.75512]}, "properties": {"NOM_COMP": "Depósito de relaves Andaychagua Bajo", "TIPO_COMP": "Depósito", "estado_dr": "Operación", "unidad": "Andaychagua", "administrado": "VOLCAN COMPANIA MINERA S.A.A.", "subsector": "Minería", "area_m2": 367953.45900871}}, {"type": "Feature", "geometry": {"type": "Point", "coordinates": [-76.30774, -11.78373]}, "properties": {"NOM_COMP": "Deposito de Relave Triana", "TIPO_COMP": "Depósito", "estado_dr": "Operación", "unidad": "Coricancha", "administrado": "GREAT PANTHER CORICANCHA S.A.", "subsector": "Minería", "area_m2": 13625.80251753}}, {"type": "Feature", "geometry": {"type": "Point", "coordinates": [-76.30608, -11.78211]}, "properties": {"NOM_COMP": "Deposito de Relave N°1 y 2", "TIPO_COMP": "Depósito", "estado_dr": "Operación", "unidad": "Coricancha", "administrado": "GREAT PANTHER CORICANCHA S.A.", "subsector": "Minería", "area_m2": 38122.32660314}}, {"type": "Feature", "geometry": {"type": "Point", "coordinates": [-77.08463, -9.80737]}, "properties": {"NOM_COMP": "Depósito de relave Oasis.", "TIPO_COMP": "Depósito", "estado_dr": "Operación", "unidad": "Pucarrajo", "administrado": "NYRSTAR ANCASH S.A.", "subsector": "Minería", "area_m2": 15958.38268613}}, {"type": "Feature", "geometry": {"type": "Point", "coordinates": [-76.26581, -11.67496]}, "properties": {"NOM_COMP": "Relavera Yauliyacu Nuevo (plataforma de finos)", "TIPO_COMP": "Depósito", "estado_dr": "Inoperativo", "unidad": "Casapalca 7", "administrado": "EMPRESA MINERA LOS QUENUALES S.A.", "subsector": "Minería", "area_m2": 43603.83364825}}, {"type": "Feature", "geometry": {"type": "Point", "coordinates": [-75.07018, -13.98215]}, "properties": {"NOM_COMP": "Depósito de relave Huinchulla", "TIPO_COMP": "Depósito", "estado_dr": "Operación", "unidad": "Antapite", "administrado": "SIERRA ANTAPITE S.A.C.", "subsector": "Minería", "area_m2": 135591.20932573}}, {"type": "Feature", "geometry": {"type": "Point", "coordinates": [-75.66849, -12.05944]}, "properties": {"NOM_COMP": "Depósito de relave nº 3 (PAM)", "TIPO_COMP": "Depósito", "estado_dr": "Cerrado", "unidad": "UEA Azulcocha", "administrado": "SIERRA POLI S.A.C.", "subsector": "Minería", "area_m2": 9540.08158627}}, {"type": "Feature", "geometry": {"type": "Point", "coordinates": [-76.29841, -10.79821]}, "properties": {"NOM_COMP": "Depósito de relaves nª 4", "TIPO_COMP": "Depósito", "estado_dr": "Inoperativo", "unidad": "Colquijirca", "administrado": "SOCIEDAD MINERA EL BROCAL S.A.A.", "subsector": "Minería", "area_m2": 62960.81365923}}, {"type": "Feature", "geometry": {"type": "Point", "coordinates": [-76.2943, -10.79695]}, "properties": {"NOM_COMP": "Depósito de relave n° 2", "TIPO_COMP": "Depósito", "estado_dr": "Inoperativo", "unidad": "Colquijirca", "administrado": "SOCIEDAD MINERA EL BROCAL S.A.A.", "subsector": "Minería", "area_m2": 53270.76922534}}, {"type": "Feature", "geometry": {"type": "Point", "coordinates": [-75.05393, -12.67195]}, "properties": {"NOM_COMP": "Relavera", "TIPO_COMP": "Depósito", "estado_dr": "Operación", "unidad": "Mina Marta", "administrado": "COMPAÑIA MINERA BARBASTRO SOCIEDAD ANONIMA CERRADA", "subsector": "Minería", "area_m2": 58808.78942076}}, {"type": "Feature", "geometry": {"type": "Point", "coordinates": [-75.33154, -11.19717]}, "properties": {"NOM_COMP": "Depósito de relaves La Esperanza.", "TIPO_COMP": "Depósito", "estado_dr": "Operación", "unidad": "San Vicente", "administrado": "COMPAÑIA MINERA SAN IGNACIO DE MOROCOCHA S.A.A.", "subsector": "Minería", "area_m2": 140589.26300385}}, {"type": "Feature", "geometry": {"type": "Point", "coordinates": [-75.99663, -13.09332]}, "properties": {"NOM_COMP": "Deposito de relaves Pahuaypite 1", "TIPO_COMP": "Depósito", "estado_dr": "Operación", "unidad": "Cerro Lindo", "administrado": "NEXA RESOURCES PERU S.A.A.", "subsector": "Minería", "area_m2": 104763.40211339}}, {"type": "Feature", "geometry": {"type": "Point", "coordinates": [-74.98674, -13.06073]}, "properties": {"NOM_COMP": "Relavera D", "TIPO_COMP": "Depósito", "estado_dr": "Operación", "unidad": "Huachocolpa Uno", "administrado": "COMPAÑIA MINERA KOLPA S.A.", "subsector": "Minería", "area_m2": 66250.29317326}}, {"type": "Feature", "geometry": {"type": "Point", "coordinates": [-74.98791, -13.06349]}, "properties": {"NOM_COMP": "Relavera c", "TIPO_COMP": "Depósito", "estado_dr": "Operación", "unidad": "Huachocolpa Uno", "administrado": "COMPAÑIA MINERA KOLPA S.A.", "subsector": "Minería", "area_m2": 36209.17369514}}, {"type": "Feature", "geometry": {"type": "Point", "coordinates": [-75.66117, -12.05156]}, "properties": {"NOM_COMP": "Depósito de relaves n° 5 b 2", "TIPO_COMP": "Depósito", "estado_dr": "Operación", "unidad": "UEA Azulcocha", "administrado": "SIERRA POLI S.A.C.", "subsector": "Minería", "area_m2": 1747.59440191}}, {"type": "Feature", "geometry": {"type": "Point", "coordinates": [-75.70749, -12.31655]}, "properties": {"NOM_COMP": "Deposito de relaves", "TIPO_COMP": "Depósito", "estado_dr": "Operación", "unidad": "Acumulación Yauricocha", "administrado": "SOCIEDAD MINERA CORONA S.A.", "subsector": "Minería", "area_m2": 426290.65200693}}, {"type": "Feature", "geometry": {"type": "Point", "coordinates": [-75.66106, -12.05202]}, "properties": {"NOM_COMP": "Depósito de relaves n° 5 b 3", "TIPO_COMP": "Depósito", "estado_dr": "Operación", "unidad": "UEA Azulcocha", "administrado": "SIERRA POLI S.A.C.", "subsector": "Minería", "area_m2": 1634.69410837}}, {"type": "Feature", "geometry": {"type": "Point", "coordinates": [-74.98517, -13.07126]}, "properties": {"NOM_COMP": "Presa de relaves Rubio", "TIPO_COMP": "Depósito", "estado_dr": "Operación", "unidad": "Huachocolpa Uno", "administrado": "COMPAÑIA MINERA KOLPA S.A.", "subsector": "Minería", "area_m2": 11674.88237611}}, {"type": "Feature", "geometry": {"type": "Point", "coordinates": [-72.32196, -14.08451]}, "properties": {"NOM_COMP": "Depósito de relaves", "TIPO_COMP": "Depósito", "estado_dr": "Operación", "unidad": "Las Bambas", "administrado": "MINERA LAS BAMBAS S.A.", "subsector": "Minería", "area_m2": 2592677.4061832}}, {"type": "Feature", "geometry": {"type": "Point", "coordinates": [-71.86316, -15.2088]}, "properties": {"NOM_COMP": "Depósito de relaves n° 02, zona sur.", "TIPO_COMP": "Depósito", "estado_dr": "Operación", "unidad": "San Cristóbal", "administrado": "MINERA BATEAS S.A.C.", "subsector": "Minería", "area_m2": 77801.07880457}}, {"type": "Feature", "geometry": {"type": "Point", "coordinates": [-76.69464, -10.63249]}, "properties": {"NOM_COMP": "Mesapata (deposito de relave n° 2)", "TIPO_COMP": "Depósito", "estado_dr": "Operación", "unidad": "Uchucchacua", "administrado": "COMPAÑIA DE MINAS BUENAVENTURA S.A.A.", "subsector": "Minería", "area_m2": 32297.91910586}}, {"type": "Feature", "geometry": {"type": "Point", "coordinates": [-77.49797, -7.98318]}, "properties": {"NOM_COMP": "Depósito de relaves filtrados Curaubamba (depósito n° 8)", "TIPO_COMP": "Depósito", "estado_dr": "Inoperativo", "unidad": "Acumulación Parcoy N° 1", "administrado": "CONSORCIO MINERO HORIZONTE S.A.", "subsector": "Minería", "area_m2": 21947.30842232}}, {"type": "Feature", "geometry": {"type": "Point", "coordinates": [-77.51052, -7.96349]}, "properties": {"NOM_COMP": "Depósito de relaves Alpamarca", "TIPO_COMP": "Depósito", "estado_dr": "Inoperativo", "unidad": "Acumulación Parcoy N° 1", "administrado": "CONSORCIO MINERO HORIZONTE S.A.", "subsector": "Minería", "area_m2": 105435.53056943}}, {"type": "Feature", "geometry": {"type": "Point", "coordinates": [-77.51044, -7.93343]}, "properties": {"NOM_COMP": "Deposito de relaves filtrados de flotación Yurac Yacu", "TIPO_COMP": "Depósito", "estado_dr": "Operación", "unidad": "Acumulación Parcoy N° 1", "administrado": "CONSORCIO MINERO HORIZONTE S.A.", "subsector": "Minería", "area_m2": 44480.01510519}}, {"type": "Feature", "geometry": {"type": "Point", "coordinates": [-77.07142, -9.50917]}, "properties": {"NOM_COMP": "Deposito de relaves Tucush", "TIPO_COMP": "Depósito", "estado_dr": "Operación", "unidad": "Contonga", "administrado": "EMPRESA MINERA LOS QUENUALES S.A.", "subsector": "Minería", "area_m2": 79350.32126226}}, {"type": "Feature", "geometry": {"type": "Point", "coordinates": [-78.64362, -6.76526]}, "properties": {"NOM_COMP": "Depósito de relaves", "TIPO_COMP": "Depósito", "estado_dr": "Operación", "unidad": "Cerro Corona", "administrado": "GOLD FIELDS LA CIMA S.A.", "subsector": "Minería", "area_m2": 712259.99793932}}, {"type": "Feature", "geometry": {"type": "Point", "coordinates": [-77.64547, -7.7583]}, "properties": {"NOM_COMP": "Depósito de relaves filtrados Hualanga", "TIPO_COMP": "Depósito", "estado_dr": "Inoperativo", "unidad": "La Libertad y La Poderosa de Trujillo", "administrado": "CIA MINERA PODEROSA S A", "subsector": "Minería", "area_m2": 77403.37823067}}, {"type": "Feature", "geometry": {"type": "Point", "coordinates": [-76.04341, -11.62299]}, "properties": {"NOM_COMP": "Depósito de relave n° 6", "TIPO_COMP": "Depósito", "estado_dr": "Operación", "unidad": "San Cristóbal - Mahr Túnel", "administrado": "VOLCAN COMPANIA MINERA S.A.A.", "subsector": "Minería", "area_m2": 131536.85382785}}]}